{
"type": "FeatureCollection",
"name": "auto_fitted_berths",
"crs": { "type": "name", "properties": { "name": "urn:ogc:def:crs:OGC:1.3:CRS84" } },
"features": [
{ "type": "Feature", "properties": { "zone_code": "SPL_BERTH_1", "cluster_id": 1, "point_count": 10850, "vessel_count": 12, "angle_degrees": 132.49298654143783, "target_length_metres": 80.0, "target_width_metres": 42.885599163159917, "heading_axis_degrees": 47.315415196242704, "heading_rotation_degrees": 42.684584803757303, "heading_concentration": 0.99938100304697408 }, "geometry": { "type": "MultiPolygon", "coordinates": [ [ [ [ -93.871714554485933, 29.743466148715882 ], [ -93.871402851479999, 29.743190669206477 ], [ -93.870807565203464, 29.743677082164119 ], [ -93.871105873639394, 29.743952046666305 ], [ -93.871714554485933, 29.743466148715882 ] ] ] ] } },
{ "type": "Feature", "properties": { "zone_code": "SPL_BERTH_2", "cluster_id": 0, "point_count": 9740, "vessel_count": 11, "angle_degrees": -41.745909610338032, "target_length_metres": 80.0, "target_width_metres": 42.440477111535934, "heading_axis_degrees": 32.725870651740806, "heading_rotation_degrees": 57.27412934825918, "heading_concentration": 0.9996271815698623 }, "geometry": { "type": "MultiPolygon", "coordinates": [ [ [ [ -93.869914611547557, 29.742790407826817 ], [ -93.869914611547557, 29.742790407826817 ], [ -93.869538904877771, 29.742592309395462 ], [ -93.869101641753289, 29.743196047724688 ], [ -93.869474273222153, 29.743398317582205 ], [ -93.869914611547557, 29.742790407826817 ] ] ] ] } },
{ "type": "Feature", "properties": { "zone_code": "SPL_BERTH_3", "cluster_id": 2, "point_count": 10611, "vessel_count": 11, "angle_degrees": 7.2173881715391888, "target_length_metres": 80.0, "target_width_metres": 49.768982107396347, "heading_axis_degrees": 32.70735689588652, "heading_rotation_degrees": 57.292643104113495, "heading_concentration": 0.99924298184753713 }, "geometry": { "type": "MultiPolygon", "coordinates": [ [ [ [ -93.867159458375312, 29.741638535390418 ], [ -93.867591881023756, 29.741864204063642 ], [ -93.868036345633854, 29.741267994165511 ], [ -93.867594600917187, 29.741037308453443 ], [ -93.867159458375312, 29.741638535390418 ] ] ] ] } }
]
}
