{
"type": "FeatureCollection",
"name": "auto_fitted_terminal_zones",
"crs": { "type": "name", "properties": { "name": "urn:ogc:def:crs:OGC:1.3:CRS84" } },
"features": [
{ "type": "Feature", "properties": { "zone_code": "SPL_BERTH_1", "zone_type": "berth", "method": "stationary_dbscan_ais_heading" }, "geometry": { "type": "MultiPolygon", "coordinates": [ [ [ [ -93.871714554485933, 29.743466148715882 ], [ -93.871402851479999, 29.743190669206477 ], [ -93.870807565203464, 29.743677082164119 ], [ -93.871105873639394, 29.743952046666305 ], [ -93.871714554485933, 29.743466148715882 ] ] ] ] } },
{ "type": "Feature", "properties": { "zone_code": "SPL_BERTH_2", "zone_type": "berth", "method": "stationary_dbscan_ais_heading" }, "geometry": { "type": "MultiPolygon", "coordinates": [ [ [ [ -93.869914611547557, 29.742790407826817 ], [ -93.869914611547557, 29.742790407826817 ], [ -93.869538904877771, 29.742592309395462 ], [ -93.869101641753289, 29.743196047724688 ], [ -93.869474273222153, 29.743398317582205 ], [ -93.869914611547557, 29.742790407826817 ] ] ] ] } },
{ "type": "Feature", "properties": { "zone_code": "SPL_BERTH_3", "zone_type": "berth", "method": "stationary_dbscan_ais_heading" }, "geometry": { "type": "MultiPolygon", "coordinates": [ [ [ [ -93.867159458375312, 29.741638535390418 ], [ -93.867591881023756, 29.741864204063642 ], [ -93.868036345633854, 29.741267994165511 ], [ -93.867594600917187, 29.741037308453443 ], [ -93.867159458375312, 29.741638535390418 ] ] ] ] } },
{ "type": "Feature", "properties": { "zone_code": "SPL_MANOEUVRE", "zone_type": "manoeuvring_basin", "method": "slow_speed_concave_hull" }, "geometry": { "type": "MultiPolygon", "coordinates": [ [ [ [ -93.873469137439969, 29.741270292334232 ], [ -93.873464048830783, 29.741287466652302 ], [ -93.873456571014415, 29.741330314636301 ], [ -93.873443591337548, 29.741374326062349 ], [ -93.873425604402513, 29.741416974824858 ], [ -93.87340279267238, 29.741457828271468 ], [ -93.873375387556308, 29.741496471961948 ], [ -93.87326442042648, 29.741636641897429 ], [ -93.873255417146694, 29.741735683454507 ], [ -93.873248370204934, 29.741782266817665 ], [ -93.873235810212719, 29.741827958045313 ], [ -93.873217873370308, 29.741872261636022 ], [ -93.873194754188148, 29.741914697136014 ], [ -93.873166703377962, 29.741954804349575 ], [ -93.873134025133965, 29.741992148329796 ], [ -93.873120899773568, 29.742004287804825 ], [ -93.873124543983209, 29.742025733282688 ], [ -93.873127038321968, 29.742069838334803 ], [ -93.873124580424175, 29.742113944944695 ], [ -93.873117193825351, 29.742157630655338 ], [ -93.873104949268694, 29.742200477040573 ], [ -93.873014950447157, 29.742460477348597 ], [ -93.872997531776747, 29.742502987870985 ], [ -93.872975332324515, 29.742543766549847 ], [ -93.872948574333378, 29.742582405131614 ], [ -93.872917525684713, 29.742618516787736 ], [ -93.872882497216636, 29.742651739987451 ], [ -93.872843839612116, 29.742681742117309 ], [ -93.872801939888262, 29.742708222811274 ], [ -93.872757217521638, 29.742730916957822 ], [ -93.872710120248655, 29.742749597354337 ], [ -93.872661119583057, 29.742764076981707 ], [ -93.872610706095074, 29.742774210876771 ], [ -93.872559384500093, 29.742779897583706 ], [ -93.872259383173287, 29.742799897698685 ], [ -93.872206022560178, 29.742801043637879 ], [ -93.872152810911842, 29.74279738258835 ], [ -93.872100315335388, 29.742788953567832 ], [ -93.872049095306096, 29.742775846409071 ], [ -93.871999696704492, 29.742758200802388 ], [ -93.871952645998405, 29.742736204806793 ], [ -93.871908444631956, 29.742710092845829 ], [ -93.871867563681235, 29.742680143208901 ], [ -93.87183043883374, 29.742646675085478 ], [ -93.871680438948474, 29.7424966746477 ], [ -93.871649746554155, 29.742462844078268 ], [ -93.871622897600858, 29.742426609678105 ], [ -93.8716001376322, 29.742388302829838 ], [ -93.871581674795195, 29.742348273869389 ], [ -93.871567677936724, 29.742306888881902 ], [ -93.871558275059442, 29.74226452635358 ], [ -93.871556182175709, 29.742245492558101 ], [ -93.871433945016321, 29.742398289643571 ], [ -93.8714034908907, 29.742432698172241 ], [ -93.871369383294834, 29.742464389088905 ], [ -93.871331938906437, 29.742493068150761 ], [ -93.871291505385486, 29.742518469079123 ], [ -93.871248458146283, 29.742540356031839 ], [ -93.871203196871775, 29.742558525793079 ], [ -93.871156141802516, 29.742572809660267 ], [ -93.871107729834705, 29.742583075010447 ], [ -93.871058410463647, 29.742589226531749 ], [ -93.871008641609976, 29.742591207108386 ], [ -93.870958885367969, 29.74258899835095 ], [ -93.87090960371475, 29.742582620767216 ], [ -93.870861254220898, 29.742572133571674 ], [ -93.8708142858017, 29.742557634135771 ], [ -93.870769134549022, 29.742539257083752 ], [ -93.870726219682055, 29.742517173042689 ], [ -93.870685939654905, 29.742491587058211 ], [ -93.870648668456937, 29.742462736690602 ], [ -93.870614752140341, 29.742430889809011 ], [ -93.870584505607098, 29.742396342104353 ], [ -93.870558209685214, 29.742359414343749 ], [ -93.870550249371576, 29.742345380098833 ], [ -93.870516703413244, 29.742338191645686 ], [ -93.870467867268488, 29.742325469504102 ], [ -93.870420703659633, 29.742308613301791 ], [ -93.870375670853335, 29.742287786822772 ], [ -93.870333206411502, 29.742263192428283 ], [ -93.870293722939564, 29.742235069090615 ], [ -93.870257604077324, 29.742203690070895 ], [ -93.870225200771301, 29.742169360263993 ], [ -93.870196827864817, 29.742132413235833 ], [ -93.870172761038802, 29.742093207982272 ], [ -93.870153234133312, 29.742052125440793 ], [ -93.870138436875564, 29.742009564789083 ], [ -93.870128513036605, 29.741965939566377 ], [ -93.870123559034681, 29.741921673655231 ], [ -93.870123622998534, 29.741877197162921 ], [ -93.870128704300001, 29.741832942242198 ], [ -93.870138753560497, 29.741789338892435 ], [ -93.870153673130929, 29.741746810781482 ], [ -93.87017331804077, 29.741705771129197 ], [ -93.870197497406906, 29.741666618692513 ], [ -93.870225976288467, 29.741629733890971 ], [ -93.870285976425123, 29.741559734073306 ], [ -93.870291469140255, 29.741553441688371 ], [ -93.870451469457137, 29.741373442169042 ], [ -93.870488883893842, 29.74133583534331 ], [ -93.870514803078152, 29.74131495741192 ], [ -93.870512993076034, 29.741275339206325 ], [ -93.870516129842471, 29.741230157286278 ], [ -93.870524438130573, 29.741185476987003 ], [ -93.870537834320004, 29.741141747964939 ], [ -93.870556183586984, 29.741099410302429 ], [ -93.870579301261316, 29.741058890078804 ], [ -93.87060695468513, 29.741020595082507 ], [ -93.870638865554483, 29.740984910707198 ], [ -93.870674712720287, 29.740952196073348 ], [ -93.870714135420457, 29.740922780414166 ], [ -93.870756736910494, 29.740896959762381 ], [ -93.870794546788076, 29.740878646741649 ], [ -93.87096505874716, 29.740730375841288 ], [ -93.871000991064349, 29.740701934021292 ], [ -93.871039819701153, 29.740676556308582 ], [ -93.871081202840656, 29.740654466107273 ], [ -93.871124776178988, 29.740635857880779 ], [ -93.871170156132322, 29.740620895440099 ], [ -93.871200272164899, 29.740613695891415 ], [ -93.871214998385582, 29.740593044346841 ], [ -93.871245996107888, 29.740557834179981 ], [ -93.871280809289345, 29.740525453314156 ], [ -93.871319100802268, 29.740496215319421 ], [ -93.871360499836385, 29.740470403330619 ], [ -93.871404605489801, 29.740448267305595 ], [ -93.871450990651212, 29.740430021604787 ], [ -93.871499206135823, 29.740415842915411 ], [ -93.871548785035145, 29.740405868540567 ], [ -93.871599247238208, 29.740400195069736 ], [ -93.871650104080672, 29.740398877443305 ], [ -93.871700863076825, 29.74040192842077 ], [ -93.871770958581095, 29.74040917974634 ], [ -93.871780359229959, 29.740402390391377 ], [ -93.871820880728862, 29.740375930659347 ], [ -93.871864172333773, 29.740353054986375 ], [ -93.87190981925788, 29.740333982548524 ], [ -93.871957384148502, 29.740318896082172 ], [ -93.872006411277297, 29.740307940133327 ], [ -93.87205643090644, 29.740301219672695 ], [ -93.872253229960506, 29.740283328884832 ], [ -93.872580340379926, 29.740227252818666 ], [ -93.872640858931149, 29.740220086161106 ], [ -93.872701923614187, 29.740219197179474 ], [ -93.872847646386347, 29.740224594401507 ], [ -93.872884569935351, 29.740209824975079 ], [ -93.872931931342706, 29.740193295877258 ], [ -93.872980928555975, 29.740180919912792 ], [ -93.873031084686446, 29.740172817536379 ], [ -93.873081911566146, 29.740169067608054 ], [ -93.873132914499067, 29.740169706625558 ], [ -93.873183597075723, 29.740174728369244 ], [ -93.873233466004592, 29.740184083962543 ], [ -93.873282035913036, 29.740197682347674 ], [ -93.873328834071302, 29.740215391171883 ], [ -93.873373404993373, 29.740237038075612 ], [ -93.873415314870144, 29.740262412369969 ], [ -93.873454155791492, 29.740291267087258 ], [ -93.873489549716467, 29.740323321384803 ], [ -93.873569549777628, 29.740403321151334 ], [ -93.873600195748011, 29.740437094797201 ], [ -93.873627011222013, 29.740473265099762 ], [ -93.873649751746029, 29.740511502331067 ], [ -93.873668210012909, 29.740551457920677 ], [ -93.873682217751863, 29.740592767633242 ], [ -93.873691647262632, 29.740635054888745 ], [ -93.87372164815099, 29.740815054756315 ], [ -93.873726514672796, 29.740859817986173 ], [ -93.873726251843991, 29.74090478164721 ], [ -93.873720862267817, 29.740949499218694 ], [ -93.87371039945981, 29.740993526623189 ], [ -93.873694967316709, 29.741036426636509 ], [ -93.873674719084832, 29.74107777322973 ], [ -93.873649855838565, 29.741117155800055 ], [ -93.87362062448365, 29.741154183248394 ], [ -93.873587315305429, 29.741188487863404 ], [ -93.873550259086258, 29.741219728973242 ], [ -93.873509823820541, 29.741247596328726 ], [ -93.873469137439969, 29.741270292334232 ] ] ] ] } },
{ "type": "Feature", "properties": { "zone_code": "SPL_CHANNEL", "zone_type": "shipping_channel", "method": "moving_ais_buffer_corridor" }, "geometry": { "type": "MultiPolygon", "coordinates": [ [ [ [ -93.875477037625231, 29.739102034921029 ], [ -93.875460610217104, 29.739123976935016 ], [ -93.875441011869597, 29.73915722554073 ], [ -93.875425459677572, 29.739192065030537 ], [ -93.875414120509546, 29.739228121600846 ], [ -93.875407116031695, 29.739265008389193 ], [ -93.87540452140216, 29.739302329624998 ], [ -93.875406364464538, 29.73933968487594 ], [ -93.875412625448845, 29.739376673344278 ], [ -93.875423237183483, 29.739412898167224 ], [ -93.875424874425718, 29.739417482979452 ], [ -93.875435032263226, 29.739451768417137 ], [ -93.875439139978866, 29.739469102746909 ], [ -93.875445398158504, 29.73950409198893 ], [ -93.875447539199627, 29.739521694221811 ], [ -93.875449837445785, 29.739557050303542 ], [ -93.875449991189925, 29.739574750920731 ], [ -93.87544830736303, 29.739610133344243 ], [ -93.875446472326431, 29.739627761879216 ], [ -93.875440822636378, 29.739662829892357 ], [ -93.875437016488362, 29.739680216572431 ], [ -93.875427455338681, 29.73971463245045 ], [ -93.875421714731573, 29.739731609832003 ], [ -93.875408334195726, 29.739765042130049 ], [ -93.875400714412066, 29.739781446710946 ], [ -93.875383643346922, 29.73981357345609 ], [ -93.87537421776706, 29.739829247250384 ], [ -93.875353620572184, 29.739859759042538 ], [ -93.875342479967728, 29.739874551101966 ], [ -93.87531855500221, 29.739903154093579 ], [ -93.875305806661999, 29.73991692196126 ], [ -93.875278784334199, 29.739943340687468 ], [ -93.875264551031051, 29.739955951769954 ], [ -93.875234691579976, 29.73997993180123 ], [ -93.87521911038813, 29.739991264645663 ], [ -93.875186701376947, 29.740012575038545 ], [ -93.875161522721172, 29.740027499230067 ], [ -93.875161739327865, 29.740027777547638 ], [ -93.875143052363214, 29.740038853901115 ], [ -93.875111871146188, 29.740061533234503 ], [ -93.875083387295604, 29.740086770572109 ], [ -93.8750578751267, 29.740114322866368 ], [ -93.875035580336572, 29.740143924775357 ], [ -93.875016717637976, 29.740175291218133 ], [ -93.875001468691494, 29.740208120120144 ], [ -93.874989980355849, 29.740242095322284 ], [ -93.874982363273602, 29.740276889625722 ], [ -93.874978690805293, 29.74031216794285 ], [ -93.874978311598156, 29.740320135451295 ], [ -93.87497647646957, 29.740337763979792 ], [ -93.874970826582228, 29.740372831973293 ], [ -93.874967020329223, 29.740390218640194 ], [ -93.874957458957255, 29.74042463448524 ], [ -93.874951718233191, 29.740441611847039 ], [ -93.874938337452178, 29.740475044099099 ], [ -93.874930717540678, 29.740491448653856 ], [ -93.87491364620989, 29.74052357534045 ], [ -93.874904220492567, 29.740539249102437 ], [ -93.874883623014085, 29.740569760824059 ], [ -93.874872482263868, 29.740584552845338 ], [ -93.874848556999524, 29.740613155755096 ], [ -93.87483580850666, 29.740626923579164 ], [ -93.874808785867685, 29.740653342212966 ], [ -93.87479455240647, 29.74066595324679 ], [ -93.874764692634869, 29.740689933176032 ], [ -93.874749111281062, 29.740701265967239 ], [ -93.874716701943086, 29.7407225762494 ], [ -93.874699922754303, 29.740732521655534 ], [ -93.874665275971154, 29.740750957058385 ], [ -93.874647460541127, 29.740759419298556 ], [ -93.874610909983119, 29.74077480227653 ], [ -93.874592229885792, 29.740781699853589 ], [ -93.874559540817415, 29.740792151485103 ], [ -93.874522158078165, 29.740805954940836 ], [ -93.874486505685311, 29.740822889586514 ], [ -93.874452926988681, 29.740842792333801 ], [ -93.874421745368039, 29.740865471510062 ], [ -93.874393261118783, 29.740890708704224 ], [ -93.874367748559976, 29.740918260870099 ], [ -93.874345453392436, 29.740947862667024 ], [ -93.874326590332615, 29.740979229015089 ], [ -93.874311341044503, 29.741012057840685 ], [ -93.87429985239018, 29.741046032985459 ], [ -93.874297461848755, 29.741054637394896 ], [ -93.874291720979684, 29.741071614729467 ], [ -93.874278339899874, 29.741105046917799 ], [ -93.874270719835039, 29.741121451436143 ], [ -93.874253648190191, 29.741153578041018 ], [ -93.874244222312655, 29.74116925175781 ], [ -93.87422362450792, 29.741199763380493 ], [ -93.874212483592189, 29.741214555348218 ], [ -93.874188557992525, 29.741243158142783 ], [ -93.874175809330396, 29.741256925905432 ], [ -93.874148786350275, 29.74128334440892 ], [ -93.874134552717692, 29.741295955374067 ], [ -93.874104692602401, 29.74131993515909 ], [ -93.874089111076771, 29.741331267875008 ], [ -93.874056701395872, 29.741352578000477 ], [ -93.874039922036474, 29.741362523325446 ], [ -93.874005274914467, 29.741380958560583 ], [ -93.87398745931668, 29.741389420714498 ], [ -93.873950908427105, 29.741404803515412 ], [ -93.873932228166481, 29.741411701001944 ], [ -93.873894125518177, 29.741423883221682 ], [ -93.873871571749234, 29.741430016805385 ], [ -93.873831123269639, 29.741443071982669 ], [ -93.873792452270109, 29.741459731553103 ], [ -93.873755979134657, 29.741479814414628 ], [ -93.873722100355522, 29.741503102251269 ], [ -93.873691184223063, 29.741529341906389 ], [ -93.873663566822145, 29.741558248134538 ], [ -93.873639548378662, 29.741589506702333 ], [ -93.873619389995724, 29.741622777804242 ], [ -93.87361364938279, 29.741633580679228 ], [ -93.873604223361596, 29.741649254352236 ], [ -93.873578471084073, 29.74168740065759 ], [ -93.873578743048611, 29.741687540483635 ], [ -93.873568967340233, 29.741701886517834 ], [ -93.873552899233999, 29.74173117672202 ], [ -93.873539912558684, 29.741761608614684 ], [ -93.87353011242277, 29.741792935900055 ], [ -93.873523578145253, 29.741824905035351 ], [ -93.87352036261349, 29.741857257282888 ], [ -93.873518320909866, 29.741900142078819 ], [ -93.873516485503941, 29.741917770588692 ], [ -93.873510835032988, 29.741952838523705 ], [ -93.873507028474563, 29.74197022515084 ], [ -93.873497466465665, 29.742004640895445 ], [ -93.873491725411043, 29.742021618196731 ], [ -93.873478343945933, 29.742055050307364 ], [ -93.873470723681919, 29.742071454781417 ], [ -93.873453651626434, 29.74210358128698 ], [ -93.873444225538037, 29.742119254948889 ], [ -93.87342362730125, 29.742149766451586 ], [ -93.87341248616498, 29.742164558354364 ], [ -93.873388560116027, 29.742193161009414 ], [ -93.873375811225827, 29.742206928697701 ], [ -93.873348787783499, 29.742233347043491 ], [ -93.873334553917502, 29.742245957925544 ], [ -93.873304693331562, 29.742269937536228 ], [ -93.873289111569392, 29.742281270161129 ], [ -93.873256701413922, 29.742302580097292 ], [ -93.873239921817188, 29.742312525324202 ], [ -93.873205274221235, 29.742330960356881 ], [ -93.873187458387562, 29.742339422406637 ], [ -93.87315090702927, 29.742354804993877 ], [ -93.873132226536498, 29.742361702371184 ], [ -93.873094123429226, 29.742373884368078 ], [ -93.873074758182852, 29.742379150646382 ], [ -93.873035470284975, 29.742388014731823 ], [ -93.873015606785543, 29.742391599193134 ], [ -93.872975512466397, 29.742397059999735 ], [ -93.872955342013071, 29.742398928123155 ], [ -93.872914827408863, 29.742400933059386 ], [ -93.872894544257136, 29.742401066853539 ], [ -93.872843854210288, 29.742399228715247 ], [ -93.872843848781912, 29.742399342718638 ], [ -93.872819979030098, 29.742398403965435 ], [ -93.872782324536232, 29.742399920761173 ], [ -93.872744984625498, 29.742404422709459 ], [ -93.872708269395503, 29.742411872422942 ], [ -93.872672483756247, 29.742422208033858 ], [ -93.872637924898001, 29.742435343707854 ], [ -93.872610512465741, 29.742448472652931 ], [ -93.872585446617862, 29.74246037810725 ], [ -93.872550788404439, 29.742478818527978 ], [ -93.872518368256834, 29.742500134710042 ], [ -93.872488498397715, 29.742524121368696 ], [ -93.872461466489938, 29.742550547501118 ], [ -93.872437532866073, 29.742579158610983 ], [ -93.872416928021408, 29.74260967915933 ], [ -93.872399850393947, 29.742641815218153 ], [ -93.872390724914325, 29.742661459399244 ], [ -93.872373652415874, 29.742693585771637 ], [ -93.872364226104693, 29.742709259359749 ], [ -93.872343627420577, 29.742739770700716 ], [ -93.872332486060415, 29.74275456251581 ], [ -93.872308559564104, 29.742783164982114 ], [ -93.872295810451078, 29.742796932569632 ], [ -93.872268786565627, 29.742823350701489 ], [ -93.872254552480001, 29.742835961470696 ], [ -93.872224691459451, 29.742859940844298 ], [ -93.872209109482995, 29.742871273345333 ], [ -93.872176698905619, 29.742892583023558 ], [ -93.872159919101946, 29.742902528116794 ], [ -93.872125271100899, 29.742920962873161 ], [ -93.872122135424334, 29.742922452195327 ], [ -93.872086813467789, 29.742941286562782 ], [ -93.872053825484699, 29.742963107453214 ], [ -93.872028467752344, 29.742981695606993 ], [ -93.871996698530211, 29.743002583509654 ], [ -93.871979918690144, 29.743012528580639 ], [ -93.871945270617616, 29.743030963291005 ], [ -93.871927454551425, 29.743039425174903 ], [ -93.871890902740461, 29.743054807421512 ], [ -93.871872222028216, 29.743061704624601 ], [ -93.871834118496508, 29.743073886265833 ], [ -93.87181475304584, 29.743079152363244 ], [ -93.871775464755871, 29.74308801608143 ], [ -93.871755601069253, 29.743091600356927 ], [ -93.871715506394139, 29.743097060788173 ], [ -93.871695335772571, 29.743098928722652 ], [ -93.87165482085193, 29.743100933279084 ], [ -93.871634537552509, 29.743101066882968 ], [ -93.871593992573366, 29.743099596259189 ], [ -93.871573791938573, 29.743097994245709 ], [ -93.871533607377501, 29.743093062604721 ], [ -93.871513683953523, 29.743089740402318 ], [ -93.871474246815922, 29.743081395239155 ], [ -93.871454792479113, 29.74307638484288 ], [ -93.871416482571817, 29.743064706527129 ], [ -93.871397684680872, 29.743058056190556 ], [ -93.871360870954149, 29.74304315719235 ], [ -93.871342910545323, 29.743034930962757 ], [ -93.871307947539677, 29.743016954769551 ], [ -93.87129099758333, 29.743007231871069 ], [ -93.871258222014873, 29.742986351605801 ], [ -93.871242445749544, 29.742975225676414 ], [ -93.871212173266926, 29.742951642429944 ], [ -93.871197722627599, 29.742939220619832 ], [ -93.871170244772159, 29.742913161514373 ], [ -93.871157258926388, 29.742899563453616 ], [ -93.87113284032462, 29.742871279455358 ], [ -93.871121444332744, 29.74285663610209 ], [ -93.871100320147448, 29.742826399603917 ], [ -93.871090623758036, 29.742810851982973 ], [ -93.871072997423965, 29.742778954181372 ], [ -93.871065094016899, 29.742762652025988 ], [ -93.871051135281462, 29.74272940011641 ], [ -93.871045100968729, 29.742712500426229 ], [ -93.871034944257516, 29.742678214644616 ], [ -93.871030837150315, 29.742660880173712 ], [ -93.871024580272589, 29.742625890712297 ], [ -93.871022439921731, 29.742608288401669 ], [ -93.871020143128717, 29.742572932229049 ], [ -93.871019990143907, 29.742555231598949 ], [ -93.871021675548761, 29.742519849214798 ], [ -93.87102351140021, 29.742502220732042 ], [ -93.871029162765311, 29.742467152887944 ], [ -93.87103296976963, 29.742449766324331 ], [ -93.871042532663168, 29.742415350742185 ], [ -93.871048274153907, 29.742398373539345 ], [ -93.871065005078236, 29.742356576131126 ], [ -93.871064828222075, 29.742356522217676 ], [ -93.871076221035111, 29.742327294647218 ], [ -93.871086246788977, 29.742286909973888 ], [ -93.871090918015284, 29.742245789984924 ], [ -93.871091237629159, 29.742239080094986 ], [ -93.871090931454319, 29.742203657486723 ], [ -93.871086648170888, 29.742168431637101 ], [ -93.871078429033318, 29.742133741789821 ], [ -93.871066353200163, 29.742099922026295 ], [ -93.871050536971723, 29.742067298048241 ], [ -93.871031132669714, 29.742036184041066 ], [ -93.871010324233637, 29.742006399185343 ], [ -93.871000627940191, 29.741990851553997 ], [ -93.870983001784623, 29.741958953733011 ], [ -93.870975098459809, 29.741942651568639 ], [ -93.870958538504908, 29.741903202697227 ], [ -93.870942722343599, 29.741870578703981 ], [ -93.870923318113967, 29.741839464678648 ], [ -93.870900512691549, 29.741810160264684 ], [ -93.870892844855931, 29.741801278491153 ], [ -93.870875744236926, 29.741779304591702 ], [ -93.870875552306273, 29.741779418344088 ], [ -93.870865241104738, 29.741765992164162 ], [ -93.870843006495221, 29.741741817647899 ], [ -93.870818477177636, 29.741719397056443 ], [ -93.870791834050294, 29.741698895735439 ], [ -93.870772448723173, 29.741685224280499 ], [ -93.870742176743207, 29.741661640911854 ], [ -93.870727726349671, 29.741649219043104 ], [ -93.870700248973819, 29.741623159825423 ], [ -93.870687263361091, 29.741609561711265 ], [ -93.870662845211157, 29.741581277611814 ], [ -93.870651449437361, 29.741566634210908 ], [ -93.870630325671826, 29.741536397623545 ], [ -93.870620629483426, 29.74152084996118 ], [ -93.870603003532949, 29.741488952083238 ], [ -93.870595100307909, 29.741472649893044 ], [ -93.870581141916261, 29.741439397920708 ], [ -93.870575107764779, 29.741422498202677 ], [ -93.870564951354197, 29.741388212372499 ], [ -93.870560844385921, 29.741370877880971 ], [ -93.870554587762811, 29.741335888385652 ], [ -93.870552447527231, 29.741318286061812 ], [ -93.870550150940346, 29.74128292987028 ], [ -93.870549998046059, 29.741265229234511 ], [ -93.870551683606564, 29.741229846846622 ], [ -93.8705535195229, 29.741212218365806 ], [ -93.870559170991683, 29.741177150533172 ], [ -93.870562978034641, 29.741159763979066 ], [ -93.870572540978884, 29.741125348423484 ], [ -93.870578282481645, 29.741108371237651 ], [ -93.870591664799335, 29.741074939398612 ], [ -93.870599285465403, 29.741058535079929 ], [ -93.870616358272486, 29.741026408922771 ], [ -93.87062578470838, 29.741010735452896 ], [ -93.870646383580237, 29.740980224368084 ], [ -93.870657525002414, 29.74096543269005 ], [ -93.870676811307391, 29.740942377542467 ], [ -93.870697812534658, 29.740914681164938 ], [ -93.870715807963563, 29.740885417546991 ], [ -93.870730645261673, 29.740854834411333 ], [ -93.870742198831181, 29.740823190650474 ], [ -93.870750370872003, 29.740790754135077 ], [ -93.870755092209592, 29.740757799446328 ], [ -93.870756322880382, 29.740724605551602 ], [ -93.870754052469962, 29.740691453442931 ], [ -93.870752451561643, 29.740678286918445 ], [ -93.870750154925247, 29.740642930728129 ], [ -93.870750001999795, 29.740625230091592 ], [ -93.870751687485281, 29.740589847699407 ], [ -93.870753523357862, 29.740572219215068 ], [ -93.870759174726842, 29.740537151372681 ], [ -93.870762981713909, 29.740519764812348 ], [ -93.870772544534546, 29.740485349241631 ], [ -93.870778285969791, 29.740468372046912 ], [ -93.870791668141251, 29.740434940187509 ], [ -93.870799288728819, 29.740418535857405 ], [ -93.870816361368469, 29.740386409674834 ], [ -93.870825787715674, 29.740370736191068 ], [ -93.870846386400473, 29.740340225076078 ], [ -93.87085752772461, 29.740325433381777 ], [ -93.870881454074805, 29.740296831170813 ], [ -93.870894203077484, 29.740283063716923 ], [ -93.870921226667264, 29.740256645862264 ], [ -93.870935460567821, 29.740244035235641 ], [ -93.870965321144325, 29.740220056153092 ], [ -93.870988703116069, 29.740203050788665 ], [ -93.870988546841176, 29.740202887141052 ], [ -93.871008111754421, 29.740188657859683 ], [ -93.871036596677058, 29.740163421378398 ], [ -93.871062109978126, 29.740135869837076 ], [ -93.871084405951535, 29.740106268573843 ], [ -93.871103269876627, 29.740074902666706 ], [ -93.871118520085957, 29.74004207418789 ], [ -93.871130009714747, 29.740008099294794 ], [ -93.871137628115136, 29.739973305185121 ], [ -93.871141301921682, 29.739938026945747 ], [ -93.87114169143473, 29.73992984943888 ], [ -93.871143527230004, 29.739912220949027 ], [ -93.871149178431935, 29.739877153090013 ], [ -93.871152985329516, 29.739859766518624 ], [ -93.871162547959585, 29.739825350920295 ], [ -93.871168289294033, 29.739808373709067 ], [ -93.87118167125324, 29.739774941811316 ], [ -93.871189291729692, 29.739758537459423 ], [ -93.871206364137464, 29.739726411228155 ], [ -93.871216704451626, 29.739709217813452 ], [ -93.871234003589336, 29.739676603881179 ], [ -93.871247500824254, 29.739642650370563 ], [ -93.871257062366936, 29.739607693850871 ], [ -93.871263195917365, 29.739579014797414 ], [ -93.871272549485525, 29.739545351380439 ], [ -93.871278290786634, 29.739528374164426 ], [ -93.87129167267436, 29.739494942255657 ], [ -93.87129929311277, 29.739478537897512 ], [ -93.871318803474935, 29.73944182382224 ], [ -93.871327402396929, 29.739424465119541 ], [ -93.871339581625463, 29.73939799585547 ], [ -93.871356365792437, 29.739366411809868 ], [ -93.871362731247515, 29.739355827545253 ], [ -93.871379808680317, 29.73932369160908 ], [ -93.871393194542108, 29.739290249613632 ], [ -93.871402759923029, 29.739255823624646 ], [ -93.871408412707012, 29.739220745183971 ], [ -93.871410098458711, 29.739185352116579 ], [ -93.871410010973051, 29.739175233002729 ], [ -93.871411696215901, 29.739139850599663 ], [ -93.871413531953124, 29.739122222105223 ], [ -93.871414086426569, 29.739118781306278 ], [ -93.871417760112962, 29.739083503057319 ], [ -93.871417453862492, 29.739048080435239 ], [ -93.871413170628685, 29.739012854579148 ], [ -93.871407019901511, 29.738986894156202 ], [ -93.871407022813827, 29.738986893630692 ], [ -93.871400859832505, 29.738960881471932 ], [ -93.871394603090678, 29.738925892006609 ], [ -93.871392462771126, 29.738908289691945 ], [ -93.87139137893557, 29.738891605514844 ], [ -93.871385997538027, 29.738850551688827 ], [ -93.87137527512931, 29.73881030359097 ], [ -93.871359352226477, 29.738771388648765 ], [ -93.871355117238124, 29.738762652932703 ], [ -93.871350587966063, 29.738751863113304 ], [ -93.871337661874861, 29.738724579933645 ], [ -93.871322224208399, 29.738698309879261 ], [ -93.871304378238634, 29.738673228683378 ], [ -93.871291466132874, 29.73865663650631 ], [ -93.871270342811172, 29.738626399999458 ], [ -93.87126064681722, 29.738610852373569 ], [ -93.871243021199874, 29.73857895456079 ], [ -93.871235118113034, 29.738562652399214 ], [ -93.871221159940603, 29.738529400476029 ], [ -93.871215125869782, 29.738512500778487 ], [ -93.871204969562385, 29.738478214980994 ], [ -93.871200862616448, 29.738460880501616 ], [ -93.871196282150109, 29.738435264804689 ], [ -93.871188521299018, 29.73840213537526 ], [ -93.871177242252983, 29.738369785092356 ], [ -93.871162543994984, 29.738338497847131 ], [ -93.871144555513098, 29.738308548201719 ], [ -93.871123434668434, 29.738280198979904 ], [ -93.871099366809773, 29.738253698960701 ], [ -93.871072563146981, 29.738229280695258 ], [ -93.871043258897416, 29.738207158466118 ], [ -93.871011711221882, 29.73818752640684 ], [ -93.870978196967855, 29.738170556798408 ], [ -93.870956814802895, 29.738161953162731 ], [ -93.870956904858915, 29.738161783696988 ], [ -93.870901670434421, 29.738139428203009 ], [ -93.870901502185546, 29.73813974481023 ], [ -93.870881275182498, 29.738131558156535 ], [ -93.870842955685873, 29.738119876106705 ], [ -93.870803508668232, 29.738111528181555 ], [ -93.870763314022142, 29.738106594775417 ], [ -93.870722758840003, 29.73810512339929 ], [ -93.870682233686168, 29.73810712822327 ], [ -93.870642128835911, 29.73811258994008 ], [ -93.870602830516887, 29.738121455951031 ], [ -93.870564717189794, 29.73813364087253 ], [ -93.870528155903685, 29.738149027358364 ], [ -93.870493498761178, 29.738167467229722 ], [ -93.870461079527701, 29.738188782902178 ], [ -93.870431210417109, 29.738212769095924 ], [ -93.870404179085028, 29.738239194812589 ], [ -93.870380245858527, 29.738267805559872 ], [ -93.870359641229044, 29.73829832580229 ], [ -93.870342563632505, 29.738330461614787 ], [ -93.870329177538295, 29.738363903513218 ], [ -93.870319611865142, 29.738398329434883 ], [ -93.870317003828433, 29.7384102403486 ], [ -93.870307441029425, 29.738444655896213 ], [ -93.870301699620541, 29.738461633074916 ], [ -93.870288317529855, 29.738495064892614 ], [ -93.870280696995437, 29.738511469196759 ], [ -93.87026362448492, 29.738543595316223 ], [ -93.870254198212578, 29.738559268762547 ], [ -93.870233599695709, 29.738589779789741 ], [ -93.870222458463701, 29.738604571433303 ], [ -93.870198532312301, 29.738633173528012 ], [ -93.870185783415522, 29.73864694091597 ], [ -93.870158760049378, 29.738673358621938 ], [ -93.870144526266017, 29.738685969165466 ], [ -93.870114665934125, 29.738709948063047 ], [ -93.870091284150504, 29.738726953272803 ], [ -93.870091529529446, 29.738727210236256 ], [ -93.87007173024169, 29.738741689973264 ], [ -93.870041915068853, 29.738768540813677 ], [ -93.87001544250387, 29.738797939197966 ], [ -93.869992596581369, 29.738829569702673 ], [ -93.869973622425405, 29.738863092954997 ], [ -93.869958723619362, 29.738898149273947 ], [ -93.869948060021471, 29.738934362529449 ], [ -93.869941746049562, 29.738971344177799 ], [ -93.869939849453175, 29.739008697430624 ], [ -93.869939988233313, 29.739024776810933 ], [ -93.869938302474125, 29.739060159206289 ], [ -93.86993646647916, 29.739077787685623 ], [ -93.869930814891305, 29.739112855504676 ], [ -93.869927007806737, 29.739130242046542 ], [ -93.869917444812017, 29.739164657566377 ], [ -93.869911703299209, 29.739181634728489 ], [ -93.869898320988838, 29.739215066507708 ], [ -93.869890700339027, 29.739231470790006 ], [ -93.869873627586998, 29.739263596860692 ], [ -93.869864201188889, 29.739279270280139 ], [ -93.869843602410967, 29.739309781248689 ], [ -93.869832461044069, 29.739324572860607 ], [ -93.86980853461462, 29.739353174887412 ], [ -93.869795785575107, 29.739366942239247 ], [ -93.869768761916561, 29.739393359868711 ], [ -93.869754527983986, 29.739405970371969 ], [ -93.869724667348194, 29.739429949185162 ], [ -93.86970908560285, 29.739441281392565 ], [ -93.869676675564392, 29.73946259045773 ], [ -93.869659896067674, 29.739472535232494 ], [ -93.869656035897592, 29.73947458903605 ], [ -93.869622456656515, 29.739494490571794 ], [ -93.869591274327618, 29.739517168627938 ], [ -93.869562789213134, 29.739542404804173 ], [ -93.869537275640425, 29.739569956064123 ], [ -93.869514979320101, 29.739599557075838 ], [ -93.869496114979697, 29.739630922767002 ], [ -93.869480864295568, 29.73966375107031 ], [ -93.869469374143193, 29.739697725832418 ], [ -93.869467447441806, 29.739704659534731 ], [ -93.869461705824335, 29.739721636678098 ], [ -93.869448323296538, 29.739755068413583 ], [ -93.869440702534291, 29.739771472670952 ], [ -93.869423629550369, 29.739803598685743 ], [ -93.869414203033145, 29.739819272074303 ], [ -93.869393604011108, 29.739849782975334 ], [ -93.869382462519553, 29.739864574550719 ], [ -93.869358535836099, 29.73989317649902 ], [ -93.869345786667608, 29.739906943809011 ], [ -93.869318762747639, 29.739933361349767 ], [ -93.869304528682989, 29.739945971806282 ], [ -93.869274667780843, 29.739969950521381 ], [ -93.869259085901632, 29.739981282677608 ], [ -93.869226675594462, 29.740002591636276 ], [ -93.869209895963337, 29.74001253635587 ], [ -93.869175248381708, 29.74003097033853 ], [ -93.869173684161538, 29.740031713256425 ], [ -93.869140555387531, 29.74004925078917 ], [ -93.869109452430209, 29.740069416750835 ], [ -93.869080648234657, 29.740092034175248 ], [ -93.869054395573727, 29.740116904583218 ], [ -93.869030924829772, 29.740143809724394 ], [ -93.869010441972918, 29.740172513492407 ], [ -93.868993126753509, 29.740202763996816 ], [ -93.868979131124675, 29.740234295773487 ], [ -93.868968577908717, 29.74026683211423 ], [ -93.868961559719224, 29.740300087494976 ], [ -93.868959399583275, 29.740321352280443 ], [ -93.868959229209281, 29.740321338765032 ], [ -93.868956473826287, 29.740347792094465 ], [ -93.868950821836847, 29.740382859873336 ], [ -93.868947014540282, 29.740400246388106 ], [ -93.868937451100024, 29.740434661839778 ], [ -93.868931709354328, 29.740451638960945 ], [ -93.868918326558784, 29.740485070644699 ], [ -93.868910705657413, 29.740501474872612 ], [ -93.868893632385223, 29.74053360082144 ], [ -93.868884205719311, 29.740549274173567 ], [ -93.868863606391272, 29.740579784995031 ], [ -93.868852464742901, 29.740594576527375 ], [ -93.868828537738651, 29.740623178383281 ], [ -93.868815788406692, 29.740636945644027 ], [ -93.868788764154246, 29.740663363080426 ], [ -93.868774529921083, 29.740675973481974 ], [ -93.868744668677962, 29.740699952081791 ], [ -93.8687290866268, 29.740711284177841 ], [ -93.868696675973453, 29.740732593011387 ], [ -93.868679896168572, 29.740742537666225 ], [ -93.868640149054627, 29.740763684449135 ], [ -93.868609149504493, 29.740781902977105 ], [ -93.868580160862891, 29.740802489041037 ], [ -93.868553419799809, 29.740825274572522 ], [ -93.868529144636057, 29.74085007354612 ], [ -93.868507533560731, 29.740876683498151 ], [ -93.868488763013289, 29.74090488717956 ], [ -93.868473958772498, 29.740929643169181 ], [ -93.868453607258701, 29.74095978658487 ], [ -93.868442465508707, 29.740974578083922 ], [ -93.868418538298755, 29.741003179868226 ], [ -93.868405788863043, 29.741016947090802 ], [ -93.868378764401655, 29.741043364446202 ], [ -93.868364530063587, 29.741055974805054 ], [ -93.868334668610274, 29.741079953315229 ], [ -93.868311285978692, 29.741096958221615 ], [ -93.868311545718413, 29.741097230225559 ], [ -93.86829643414795, 29.741108173473101 ], [ -93.868268985839549, 29.74113218751334 ], [ -93.86824424151699, 29.741158343873689 ], [ -93.868222419660668, 29.741186411608464 ], [ -93.868203712947803, 29.741216142895471 ], [ -93.868188286551074, 29.741247275224026 ], [ -93.868176276680188, 29.741279533712788 ], [ -93.868167789379171, 29.741312633536772 ], [ -93.868162899589876, 29.741346282442173 ], [ -93.868161650490194, 29.74138018332679 ], [ -93.868164053112707, 29.741414036863286 ], [ -93.868167592380885, 29.741442298458534 ], [ -93.86816985109057, 29.7414770841505 ], [ -93.868170003568167, 29.741494784796917 ], [ -93.868168317168667, 29.741530167170058 ], [ -93.868166480829885, 29.741547795625497 ], [ -93.868160828508422, 29.741582863371246 ], [ -93.868157021035117, 29.741600249863826 ], [ -93.868147457220545, 29.741634665259987 ], [ -93.868141715277844, 29.7416516423479 ], [ -93.868128332069304, 29.741685073954262 ], [ -93.868120710952553, 29.741701478138175 ], [ -93.868103637232664, 29.741733603988489 ], [ -93.868094210335087, 29.741749277286281 ], [ -93.868073610528953, 29.741779787989078 ], [ -93.868062468634847, 29.741794579457277 ], [ -93.868038541126708, 29.741823181175473 ], [ -93.868025791537349, 29.741836948362888 ], [ -93.867998766760067, 29.741863365643891 ], [ -93.867984532260266, 29.741875975963616 ], [ -93.86795467047645, 29.741899954391826 ], [ -93.867939088151999, 29.741911286398359 ], [ -93.867906676947257, 29.741932595045746 ], [ -93.867889896865123, 29.741942539604199 ], [ -93.867855248378646, 29.741960973254219 ], [ -93.867837432141172, 29.741969434591891 ], [ -93.867800880059647, 29.741984815715913 ], [ -93.867782199248538, 29.741991712344319 ], [ -93.867744095592315, 29.742003892811514 ], [ -93.867724730116137, 29.742009158311351 ], [ -93.867685441848849, 29.742018020815365 ], [ -93.867665578210378, 29.742021604476111 ], [ -93.867625483704941, 29.742027063664775 ], [ -93.867605313204663, 29.742028930973262 ], [ -93.867564798599062, 29.742030934270648 ], [ -93.867544515492895, 29.742031067243335 ], [ -93.867503970971143, 29.742029595356151 ], [ -93.867483770599748, 29.742027992712355 ], [ -93.867443586633954, 29.742023059815786 ], [ -93.867423663540976, 29.74201973699002 ], [ -93.867384227130856, 29.742011390591188 ], [ -93.867364773189436, 29.742006379584495 ], [ -93.867326464134806, 29.741994700064904 ], [ -93.86730766669983, 29.74198804913674 ], [ -93.867270853942742, 29.741973148978094 ], [ -93.867252894046104, 29.741964922181424 ], [ -93.867217932117725, 29.74194694488239 ], [ -93.867200982724825, 29.741937221446825 ], [ -93.867168208330881, 29.741916340140953 ], [ -93.867152432674871, 29.741905213709625 ], [ -93.867122161452698, 29.741881629497829 ], [ -93.867107711462637, 29.741869207225783 ], [ -93.867080234941469, 29.741843147239543 ], [ -93.867067249778671, 29.74182954876127 ], [ -93.867042832572125, 29.741801263975287 ], [ -93.867031437290379, 29.741786620252981 ], [ -93.867010314547827, 29.741756383067688 ], [ -93.867000618888852, 29.741740835129722 ], [ -93.866982994031105, 29.74170893674826 ], [ -93.866975091367749, 29.741692634330914 ], [ -93.866961134128076, 29.741659381954289 ], [ -93.866955100565121, 29.741642482059753 ], [ -93.866944945354675, 29.741608195928418 ], [ -93.866940838996143, 29.741590861312709 ], [ -93.866934583609719, 29.741555871622268 ], [ -93.86693244399919, 29.741538269227778 ], [ -93.86693014867366, 29.741502912949034 ], [ -93.866929996413745, 29.74148521229683 ], [ -93.866931683248126, 29.741449829930477 ], [ -93.866933519802018, 29.741432201487594 ], [ -93.866939172544903, 29.741397133785028 ], [ -93.866942980222504, 29.741379747322881 ], [ -93.866952544428841, 29.741345332004656 ], [ -93.866958286557164, 29.741328354963883 ], [ -93.866971670112761, 29.741294923467205 ], [ -93.866979291389313, 29.741278519345315 ], [ -93.866996365398222, 29.741246393632206 ], [ -93.867005792423654, 29.741230720408961 ], [ -93.86702639244966, 29.741200209865639 ], [ -93.867037534434743, 29.741185418481628 ], [ -93.867061462085132, 29.741156816939036 ], [ -93.867074211725125, 29.741143049842215 ], [ -93.867101236561624, 29.741116632746202 ], [ -93.86711547106971, 29.741104022519995 ], [ -93.867145332827405, 29.741080044279055 ], [ -93.867168715657328, 29.741063039574765 ], [ -93.867168455920734, 29.741062767568511 ], [ -93.867183567610425, 29.741051824447389 ], [ -93.867211016162059, 29.741027810627223 ], [ -93.867235760726771, 29.74100165445482 ], [ -93.867257582823555, 29.740973586877228 ], [ -93.867276289775972, 29.740943855718182 ], [ -93.867291716413305, 29.740912723489782 ], [ -93.867303726528846, 29.740880465074707 ], [ -93.867312214082503, 29.740847365299018 ], [ -93.867317104136887, 29.740813716417307 ], [ -93.867318353518911, 29.7407798155322 ], [ -93.867315951200851, 29.740745961971093 ], [ -93.867312412200548, 29.740717700344806 ], [ -93.867310153810422, 29.740682914627932 ], [ -93.867310001488832, 29.740665213975312 ], [ -93.867311688183548, 29.74062983160275 ], [ -93.867313524659693, 29.740612203154072 ], [ -93.867319177231479, 29.740577135434581 ], [ -93.867322984815985, 29.740559748961303 ], [ -93.867334941983785, 29.740516721999263 ], [ -93.867334754057751, 29.740516682225461 ], [ -93.867339832409954, 29.740498775225198 ], [ -93.8673454578459, 29.740467111999045 ], [ -93.867347843672306, 29.740435138169204 ], [ -93.86734697109344, 29.740403105669316 ], [ -93.86734284698781, 29.74037126689506 ], [ -93.867334543638862, 29.740325480332 ], [ -93.867332451762067, 29.740308270947502 ], [ -93.867330156335811, 29.740272914671468 ], [ -93.867330004013255, 29.740255214017843 ], [ -93.867331690697881, 29.740219831643131 ], [ -93.867333527164959, 29.740202203193324 ], [ -93.867339179710555, 29.740167135471427 ], [ -93.867342987277965, 29.740149748996892 ], [ -93.867352551241325, 29.740115333648543 ], [ -93.867358293237203, 29.740098356590064 ], [ -93.867371676506494, 29.740064925052746 ], [ -93.867379297629626, 29.740048520908001 ], [ -93.867396371311642, 29.740016395144149 ], [ -93.867405798164114, 29.740000721893093 ], [ -93.86742639782581, 29.739970211289403 ], [ -93.86743753962007, 29.739955419872921 ], [ -93.867461466872243, 29.739926818260923 ], [ -93.867474216305411, 29.739913051127264 ], [ -93.86750124071358, 29.739886633953486 ], [ -93.867515475000829, 29.739874023686436 ], [ -93.867545336304246, 29.739850045360097 ], [ -93.867560918361619, 29.739838713401973 ], [ -93.867593328980035, 29.739817404844729 ], [ -93.867618508743163, 29.739802482071177 ], [ -93.867618391111293, 29.73980233090456 ], [ -93.86764205211513, 29.739788240791775 ], [ -93.867674468592895, 29.739764343371668 ], [ -93.867703908841449, 29.739737673211309 ], [ -93.867730062997737, 29.73970851102052 ], [ -93.867752655786219, 29.739677163738062 ], [ -93.867771449416324, 29.739643961301002 ], [ -93.867786246085018, 29.739609253171945 ], [ -93.867796890058642, 29.73957340466087 ], [ -93.86780326931185, 29.739536793080088 ], [ -93.867805316706608, 29.739499803772951 ], [ -93.867803010698481, 29.739462826058055 ], [ -93.867802457243059, 29.739458273037378 ], [ -93.867800161679398, 29.739422916767921 ], [ -93.86780000927952, 29.739405216114239 ], [ -93.867801695792693, 29.73936983373266 ], [ -93.867803532165823, 29.739352205276063 ], [ -93.867809184507493, 29.739317137533899 ], [ -93.867812991965252, 29.739299751045913 ], [ -93.867822555694232, 29.739265335664083 ], [ -93.867828297565765, 29.739248358585623 ], [ -93.867841680572482, 29.73921492700196 ], [ -93.867849301557754, 29.739198522830886 ], [ -93.867866374951547, 29.739166397008251 ], [ -93.867875801654037, 29.739150723724798 ], [ -93.867896401004572, 29.739120213050448 ], [ -93.867907542638122, 29.739105421595841 ], [ -93.867907993799136, 29.739104882288473 ], [ -93.867930290493049, 29.739075281538021 ], [ -93.867949155227279, 29.739043916059725 ], [ -93.867964406326593, 29.739011087921718 ], [ -93.867975896917642, 29.738977113278128 ], [ -93.867983516343287, 29.738942319324245 ], [ -93.867989186858566, 29.738907138312257 ], [ -93.867992994271518, 29.738889751818945 ], [ -93.868002557903509, 29.738855336424027 ], [ -93.868008299722973, 29.738838359337802 ], [ -93.868021682618675, 29.738804927736183 ], [ -93.868029303545143, 29.738788523554973 ], [ -93.868046376814945, 29.738756397709693 ], [ -93.868055803452449, 29.738740724413777 ], [ -93.86806481001517, 29.738727384269755 ], [ -93.868083720352786, 29.738695932736761 ], [ -93.86809899727298, 29.738663011548056 ], [ -93.868110492865938, 29.738628939451633 ], [ -93.868122605526935, 29.738585200415997 ], [ -93.868128301141397, 29.738568359839714 ], [ -93.868141683963472, 29.73853492822613 ], [ -93.868149304850988, 29.738518524038152 ], [ -93.868166378038666, 29.738486398177795 ], [ -93.86817580463314, 29.738470724873608 ], [ -93.868196403758091, 29.738440214154096 ], [ -93.868207545274444, 29.738425422675096 ], [ -93.868231471952669, 29.738396820929065 ], [ -93.868244221090706, 29.738383053724093 ], [ -93.868255726879113, 29.738371806155008 ], [ -93.868281240514108, 29.738344255136266 ], [ -93.868303536934349, 29.738314654325173 ], [ -93.868322401414929, 29.738283288795326 ], [ -93.868337652282989, 29.738250460615355 ], [ -93.868349142667427, 29.738216485939795 ], [ -93.86835676191312, 29.738181691964222 ], [ -93.868360436646483, 29.738146413774242 ], [ -93.86836170332073, 29.738119836191331 ], [ -93.868363539578723, 29.738102207726108 ], [ -93.868369191666346, 29.738067139958819 ], [ -93.868372998985564, 29.738049753454373 ], [ -93.868382562414951, 29.738015338031897 ], [ -93.868388304125872, 29.737998360929311 ], [ -93.868401686790349, 29.737964929289873 ], [ -93.868409307594504, 29.737948525087248 ], [ -93.868426380606678, 29.73791639919423 ], [ -93.86843580710925, 29.73790072587208 ], [ -93.868456406042512, 29.737870215113439 ], [ -93.868467547459332, 29.737855423613333 ], [ -93.868491473931499, 29.737826821822079 ], [ -93.86850422296331, 29.737813054593055 ], [ -93.868506857318764, 29.737810479333799 ], [ -93.868532370745797, 29.73778292826859 ], [ -93.868554666971377, 29.737753327416694 ], [ -93.868573531272403, 29.73772196185211 ], [ -93.868588781977834, 29.737689133643819 ], [ -93.868600272218046, 29.737655158946602 ], [ -93.86860789133938, 29.737620364956264 ], [ -93.868611565969402, 29.737585086758536 ], [ -93.868611260723569, 29.737549664101977 ], [ -93.868610173500983, 29.737532920328675 ], [ -93.868610020970536, 29.737515219673753 ], [ -93.868611707185025, 29.737479837278229 ], [ -93.868613543390509, 29.737462208808964 ], [ -93.868619195360878, 29.737427141030125 ], [ -93.868623002615522, 29.73740975451819 ], [ -93.86863256590415, 29.737375339077321 ], [ -93.868638892397769, 29.737356632628163 ], [ -93.868647809791156, 29.73732510517732 ], [ -93.868653444421398, 29.737293005887711 ], [ -93.868655750688418, 29.737260594551206 ], [ -93.86865470992997, 29.737228133484955 ], [ -93.868650330572478, 29.737195885408294 ], [ -93.86864264806286, 29.737164111316552 ], [ -93.868634974238049, 29.737138203152664 ], [ -93.868630867792731, 29.737120868579993 ], [ -93.868624612140252, 29.737085878952325 ], [ -93.868622472350907, 29.737068276577432 ], [ -93.868620176576627, 29.737032920314299 ], [ -93.868620024047516, 29.737015219658073 ], [ -93.868621710254772, 29.736979837260019 ], [ -93.86862354645173, 29.736962208789514 ], [ -93.868629198395183, 29.736927141008277 ], [ -93.86863273064354, 29.736911010283325 ], [ -93.868638384284935, 29.736875931931838 ], [ -93.868640070992953, 29.736840538868442 ], [ -93.868640025156452, 29.736835219729279 ], [ -93.868641711355366, 29.736799837330231 ], [ -93.868643547546355, 29.736782208859118 ], [ -93.86864919947439, 29.736747141076425 ], [ -93.868653006701265, 29.736729754562482 ], [ -93.868662569921227, 29.73669533911745 ], [ -93.868668311515364, 29.736678362001836 ], [ -93.868681693922568, 29.736644930332893 ], [ -93.868689314586604, 29.73662852611384 ], [ -93.868706387296157, 29.736596400184663 ], [ -93.868717954001156, 29.73657716802045 ], [ -93.86873579004876, 29.736543388706615 ], [ -93.868749548573689, 29.736508186946875 ], [ -93.868759083508323, 29.736471936472618 ], [ -93.868764293626498, 29.736435022148811 ], [ -93.868765123618147, 29.736397835887978 ], [ -93.868761564676262, 29.736360772489341 ], [ -93.868753654590179, 29.736324225447259 ], [ -93.868741477344187, 29.736288582773671 ], [ -93.868725162225672, 29.736254222878575 ], [ -93.868704882452434, 29.736221510552721 ], [ -93.868680348577783, 29.736186389408701 ], [ -93.868670653223035, 29.73617084157453 ], [ -93.868653028863406, 29.736138943379945 ], [ -93.868645126393176, 29.736122641045398 ], [ -93.868631169427246, 29.736089388812779 ], [ -93.868625135944498, 29.736072488979232 ], [ -93.868614980780762, 29.736038202947654 ], [ -93.868610874388722, 29.73602086837057 ], [ -93.868604618821564, 29.735985878734649 ], [ -93.868602479064123, 29.735968276356012 ], [ -93.868600183332148, 29.735932920086071 ], [ -93.86860003081334, 29.735915219426797 ], [ -93.868601717019473, 29.735879837023411 ], [ -93.868603553204991, 29.735862208550632 ], [ -93.868609205103894, 29.735827140765576 ], [ -93.868613012307165, 29.735809754250955 ], [ -93.868622298647594, 29.735776334992568 ], [ -93.868629917636468, 29.735741540994216 ], [ -93.868633592207715, 29.735706262787506 ], [ -93.868633286977371, 29.735670840121102 ], [ -93.868629004889101, 29.735635614134523 ], [ -93.868620787185861, 29.735600924072831 ], [ -93.868608713012406, 29.735567104019484 ], [ -93.86859289865302, 29.735534479679007 ], [ -93.868573496411472, 29.735503365240273 ], [ -93.868550693144144, 29.735474060350789 ], [ -93.868524708460399, 29.735446847230943 ], [ -93.86851026936742, 29.735433151949724 ], [ -93.868497284864134, 29.735419553585942 ], [ -93.868472868863847, 29.735391269013455 ], [ -93.868461474127002, 29.735376625389833 ], [ -93.868440352355819, 29.735346388385377 ], [ -93.868430657121863, 29.735330840529283 ], [ -93.86841303299127, 29.735298942294218 ], [ -93.868405130628929, 29.735282639941179 ], [ -93.868391173865163, 29.735249387675143 ], [ -93.868385140476391, 29.735232487826686 ], [ -93.868374985486014, 29.735198201769027 ], [ -93.868370879173085, 29.735180867180784 ], [ -93.868364623748803, 29.735145877526406 ], [ -93.868362484054899, 29.735128275140472 ], [ -93.86836018843394, 29.735092918859838 ], [ -93.868360035962453, 29.735075218197203 ], [ -93.868361722246689, 29.73503983579101 ], [ -93.868363558462846, 29.735022207318796 ], [ -93.868369210406186, 29.734987139538863 ], [ -93.868373017623142, 29.734969753028757 ], [ -93.868383723001529, 29.734931227055469 ], [ -93.868391342016992, 29.734896433066083 ], [ -93.868395016648947, 29.734861154860482 ], [ -93.868394711512849, 29.734825732187296 ], [ -93.868390429551496, 29.734790506186155 ], [ -93.86838221200658, 29.734755816102215 ], [ -93.868370138021362, 29.734721996019175 ], [ -93.868354323878279, 29.734689371641817 ], [ -93.868343036338487, 29.734668941946413 ], [ -93.868335134039455, 29.734652639586418 ], [ -93.868321177391323, 29.734619387307635 ], [ -93.868315144054705, 29.734602487453412 ], [ -93.868304989157153, 29.7345682013854 ], [ -93.868304710420986, 29.734567024703317 ], [ -93.868295545809033, 29.734535551335313 ], [ -93.86828317727776, 29.734504924159303 ], [ -93.86826770493272, 29.734475391051518 ], [ -93.868249253999451, 29.734447191033315 ], [ -93.86822797380978, 29.734420552336722 ], [ -93.868204036593269, 29.734395690557314 ], [ -93.868180273021238, 29.734373150757907 ], [ -93.86816728870194, 29.734359552355926 ], [ -93.86814287305728, 29.734331267711031 ], [ -93.868131478491534, 29.734316624053271 ], [ -93.868110357048479, 29.734286386984866 ], [ -93.868100661971084, 29.734270839099054 ], [ -93.868083038137968, 29.734238940809146 ], [ -93.868075135916129, 29.734222638431053 ], [ -93.86806117941633, 29.734189386119773 ], [ -93.868055146150638, 29.734172486251211 ], [ -93.868044991388189, 29.73413820015837 ], [ -93.868040885179752, 29.734120865555127 ], [ -93.868034629945143, 29.734085875875959 ], [ -93.868032490336134, 29.734068273480279 ], [ -93.868031791356302, 29.734057507356198 ], [ -93.868027509561216, 29.734022281336035 ], [ -93.868019292210249, 29.733987591221794 ], [ -93.86800721844476, 29.73395377109744 ], [ -93.868001180757602, 29.733939385831693 ], [ -93.867995147517959, 29.733922485959255 ], [ -93.86798499280323, 29.733888199859607 ], [ -93.867980886616394, 29.733870865253436 ], [ -93.867974631420338, 29.733835875569405 ], [ -93.867972491828255, 29.733818273171771 ], [ -93.867970196385926, 29.733782916874077 ], [ -93.867970043990979, 29.733765216206095 ], [ -93.867971730402516, 29.733729833795628 ], [ -93.867973566669249, 29.733712205324469 ], [ -93.867979218687324, 29.733677137553073 ], [ -93.867983025928368, 29.733659751050428 ], [ -93.867990614203606, 29.733632442831205 ], [ -93.86799799417723, 29.733599110616908 ], [ -93.868001753543609, 29.733565320726399 ], [ -93.868001859053635, 29.733531372041657 ], [ -93.867998309777747, 29.733497564848903 ], [ -93.867991137113947, 29.733464198182599 ], [ -93.867980404510007, 29.733431567180268 ], [ -93.867966206902096, 29.733399960472038 ], [ -93.867948669875005, 29.733369657627613 ], [ -93.867927948551085, 29.73334092668345 ], [ -93.867904226218201, 29.733314021771928 ], [ -93.867877712708392, 29.733289180873523 ], [ -93.867848642541773, 29.733266623711852 ], [ -93.86783246870435, 29.733255215544027 ], [ -93.867802199978641, 29.733231631408071 ], [ -93.867787751175086, 29.733219209170866 ], [ -93.867760276899105, 29.733193149248095 ], [ -93.86774729279162, 29.73317955079834 ], [ -93.867722877557313, 29.73315126606278 ], [ -93.86771099958743, 29.733136000851292 ], [ -93.867692979236068, 29.733114582559434 ], [ -93.867673202376039, 29.73309437927756 ], [ -93.867640277061128, 29.73306314882533 ], [ -93.867627292986697, 29.733049550362836 ], [ -93.867602877817944, 29.733021265603302 ], [ -93.867591483482528, 29.733006621891615 ], [ -93.867570362484074, 29.732976384722289 ], [ -93.867560667620239, 29.732960836789644 ], [ -93.867543044196125, 29.732928938413508 ], [ -93.867535142169061, 29.73291263599614 ], [ -93.867521186038701, 29.732879383614147 ], [ -93.867515152947121, 29.732862483714246 ], [ -93.867504998510995, 29.732828197566899 ], [ -93.867500892454302, 29.732810862940532 ], [ -93.867494637499803, 29.732775873223581 ], [ -93.86749249801872, 29.73275827081325 ], [ -93.867490202778512, 29.73272291449776 ], [ -93.867490050474387, 29.732705213824676 ], [ -93.867491737046677, 29.732669831411684 ], [ -93.867493573383129, 29.732652202943093 ], [ -93.867499225519069, 29.732617135184459 ], [ -93.867503032808088, 29.73259974869201 ], [ -93.867512596068437, 29.732565333308816 ], [ -93.867518337640789, 29.732548356233455 ], [ -93.867531719920493, 29.73251492466353 ], [ -93.867543155352593, 29.732490308531013 ], [ -93.867542687951527, 29.73249014313874 ], [ -93.867550987498603, 29.732472193071665 ], [ -93.867562662629027, 29.732437036469545 ], [ -93.867570198241495, 29.732401028681942 ], [ -93.867573516853696, 29.732364539967588 ], [ -93.867572584345851, 29.732327945530091 ], [ -93.867567410311281, 29.732291621659758 ], [ -93.867558047957587, 29.732255941864338 ], [ -93.867544593559387, 29.732221273028369 ], [ -93.867527185468134, 29.732187971640638 ], [ -93.867506002689353, 29.732156380128551 ], [ -93.867481263041881, 29.732126823337151 ], [ -93.867453220917994, 29.732099605188814 ], [ -93.86742216466746, 29.732075005558279 ], [ -93.867388413632582, 29.732053277394794 ], [ -93.867361643972259, 29.732039459572942 ], [ -93.867361670070679, 29.732039420915108 ], [ -93.867317964098334, 29.732016945142188 ], [ -93.867301016391281, 29.732007221671498 ], [ -93.867268245260547, 29.731986340294682 ], [ -93.867252471176982, 29.731975213827621 ], [ -93.867222202975725, 29.731951629544007 ], [ -93.867207754429586, 29.731939207235964 ], [ -93.867180280657948, 29.731913147177728 ], [ -93.867167296796637, 29.731899548663563 ], [ -93.867142882041762, 29.731871263806077 ], [ -93.867131487906519, 29.731856620048301 ], [ -93.867110367294174, 29.731826382792729 ], [ -93.867100672615692, 29.731810834820049 ], [ -93.867083049546181, 29.731778936370173 ], [ -93.867075147687842, 29.731762633919232 ], [ -93.867061191877184, 29.731729381476732 ], [ -93.867055158936083, 29.731712481550009 ], [ -93.867045004781673, 29.731678195355968 ], [ -93.867040898855777, 29.731660860709827 ], [ -93.867034644142279, 29.73162587096045 ], [ -93.867032504771046, 29.731608268537553 ], [ -93.867030209728824, 29.731572912204211 ], [ -93.867030057512537, 29.731555211525897 ], [ -93.867031744237892, 29.731519829109811 ], [ -93.86703358063933, 29.731502200643384 ], [ -93.867039232881922, 29.731467132896427 ], [ -93.867043040212437, 29.731449746413499 ], [ -93.867052603532017, 29.73141533105666 ], [ -93.867058345122004, 29.731398353998102 ], [ -93.867071727412934, 29.731364922468934 ], [ -93.867079347965046, 29.731348518332421 ], [ -93.867096420343557, 29.731316392593328 ], [ -93.867096644485443, 29.731316019902646 ], [ -93.867113721998891, 29.731283884478426 ], [ -93.867127108290617, 29.73125044286726 ], [ -93.867136674446698, 29.731216017131239 ], [ -93.867142328343519, 29.731180938809743 ], [ -93.867144015535033, 29.731145545726609 ], [ -93.867141719776839, 29.731110178736639 ], [ -93.867135463182478, 29.731075178442982 ], [ -93.867125306010351, 29.731040881916979 ], [ -93.867111346083149, 29.731007619451979 ], [ -93.867093717845748, 29.730975711382488 ], [ -93.867090677111364, 29.73097083471816 ], [ -93.867073054198826, 29.730938936259896 ], [ -93.867065152411541, 29.730922633804941 ], [ -93.867062522500746, 29.730916367472641 ], [ -93.867045227348555, 29.730881088101658 ], [ -93.86702373891768, 29.730847610471255 ], [ -93.86699830005027, 29.730816312908132 ], [ -93.866969198231075, 29.730787549102001 ], [ -93.866936762338568, 29.730761644108629 ], [ -93.866901358928232, 29.730738890676555 ], [ -93.866881018779168, 29.730727220597739 ], [ -93.866840048094019, 29.730701114007328 ], [ -93.866840039997626, 29.730701123686174 ], [ -93.866815461321835, 29.730685470704842 ], [ -93.866780290347592, 29.730667416052491 ], [ -93.86675273694776, 29.73065482525627 ], [ -93.866717965718252, 29.730636943694325 ], [ -93.86670101830255, 29.730627220138938 ], [ -93.866668247748294, 29.730606338597692 ], [ -93.866652473949017, 29.730595212051139 ], [ -93.866622206307355, 29.73057162761425 ], [ -93.866607758035698, 29.730559205232655 ], [ -93.866580284801387, 29.730533145033782 ], [ -93.866567301202096, 29.730519546452733 ], [ -93.866542886957077, 29.730491261468593 ], [ -93.866531493068891, 29.730476617651235 ], [ -93.866510372934016, 29.730446380284214 ], [ -93.866500678485252, 29.730430832259845 ], [ -93.86648305585625, 29.730398933714799 ], [ -93.866475154208061, 29.730382631220525 ], [ -93.866461198796713, 29.730349378700058 ], [ -93.866455166044176, 29.730332478738799 ], [ -93.866445012244014, 29.730298192484735 ], [ -93.866440906483277, 29.730280857813188 ], [ -93.866434652075569, 29.730245868022326 ], [ -93.866432512844497, 29.730228265583378 ], [ -93.866430218056649, 29.730192909227473 ], [ -93.866430065954177, 29.730175208542647 ], [ -93.866431752880047, 29.730139826123128 ], [ -93.866433589367873, 29.730122197659774 ], [ -93.866439241755188, 29.730087129928574 ], [ -93.866443049143811, 29.730069743458284 ], [ -93.86645261255093, 29.730035328136204 ], [ -93.866458354170192, 29.730018351099709 ], [ -93.866469770954112, 29.729989829893949 ], [ -93.866481261104582, 29.729955855344912 ], [ -93.866488880449026, 29.729921061433508 ], [ -93.866492555612922, 29.729885783244725 ], [ -93.86649225120658, 29.729850360527024 ], [ -93.866487970165736, 29.729815134420445 ], [ -93.866479753723283, 29.729780444171194 ], [ -93.866467681011784, 29.729746623864539 ], [ -93.866451868301482, 29.729713999207441 ], [ -93.86643246788023, 29.729682884391799 ], [ -93.866409666586904, 29.729653579068792 ], [ -93.866383684011879, 29.72962636546297 ], [ -93.866380288237238, 29.729623144300653 ], [ -93.866367304784831, 29.729609545695212 ], [ -93.866342890822068, 29.729581260664762 ], [ -93.866331497068813, 29.729566616825533 ], [ -93.866310377190942, 29.729536379417432 ], [ -93.866300682863852, 29.729520831373907 ], [ -93.866283060464099, 29.729488932793416 ], [ -93.866275158923159, 29.729472630282896 ], [ -93.866261203711105, 29.729439377732952 ], [ -93.866255171050341, 29.72942247775849 ], [ -93.866242691605223, 29.729380337791024 ], [ -93.866230610102676, 29.729346496202069 ], [ -93.866214783923269, 29.72931385198757 ], [ -93.866195365679218, 29.729282719929213 ], [ -93.866172542619836, 29.729253400227059 ], [ -93.866146534825774, 29.729226175604747 ], [ -93.866117593086784, 29.729201308583278 ], [ -93.866085996483449, 29.729179038949663 ], [ -93.866052049695881, 29.729159581444787 ], [ -93.866007880468317, 29.729136892209702 ], [ -93.86599102011948, 29.729127218325928 ], [ -93.865958250203391, 29.7291063365914 ], [ -93.865942476719283, 29.729095209951428 ], [ -93.865912209699019, 29.729071625334452 ], [ -93.865897761732626, 29.72905920286648 ], [ -93.865870289096947, 29.729033142502445 ], [ -93.865857305790101, 29.72901954384287 ], [ -93.865832892115165, 29.728991258710078 ], [ -93.865821498503763, 29.72897661482282 ], [ -93.86580037890495, 29.728946377325098 ], [ -93.865790684714653, 29.728930829240127 ], [ -93.86577306258252, 29.728898930583572 ], [ -93.865765161171993, 29.728882628038583 ], [ -93.865751206213545, 29.728849375426897 ], [ -93.865745173675563, 29.728832475425282 ], [ -93.865735020279971, 29.728798189101152 ], [ -93.865730914708635, 29.7287808544 ], [ -93.865724660653257, 29.728745864560892 ], [ -93.865722521584601, 29.728728262103395 ], [ -93.865720227093462, 29.728692905721527 ], [ -93.865720075124855, 29.728675205029379 ], [ -93.865721762288956, 29.728639822606446 ], [ -93.865723727036766, 29.728620964046431 ], [ -93.865725425702621, 29.728588898721902 ], [ -93.865723853856082, 29.728556828470843 ], [ -93.865719023930268, 29.728525006901425 ], [ -93.86571097412272, 29.728493685655039 ], [ -93.865699768093293, 29.728463112416367 ], [ -93.865681024426095, 29.728418859173178 ], [ -93.86567517608097, 29.728402475071487 ], [ -93.865665022756204, 29.728368188738425 ], [ -93.865660917216317, 29.728350854033401 ], [ -93.86565466321575, 29.728315864187699 ], [ -93.8656525241704, 29.72829826172751 ], [ -93.865650229717545, 29.728262905341474 ], [ -93.86565007776386, 29.72824520464783 ], [ -93.865651764949348, 29.728209822223185 ], [ -93.865653601547606, 29.72819219376353 ], [ -93.86565925411665, 29.728157126052245 ], [ -93.865664808930575, 29.7281317604454 ], [ -93.865669420020154, 29.728105494520673 ], [ -93.865671510770298, 29.728082269637941 ], [ -93.865673602335335, 29.728062193839769 ], [ -93.865679254891305, 29.728027126127216 ], [ -93.865683062343194, 29.728009739672359 ], [ -93.86569262583437, 29.727975324393313 ], [ -93.865698367474351, 29.727958347384341 ], [ -93.865711749793476, 29.727924915975631 ], [ -93.86571937032376, 29.72790851190976 ], [ -93.865736442586766, 29.72787638633255 ], [ -93.865745868615193, 29.727860713188981 ], [ -93.86576646640269, 29.727830202828191 ], [ -93.865783184239703, 29.727808006986642 ], [ -93.865783058288571, 29.727807934718943 ], [ -93.86579809069795, 29.727787976566265 ], [ -93.865816954084451, 29.727756611368196 ], [ -93.865827873359507, 29.727733106275252 ], [ -93.865827935888163, 29.727733128403422 ], [ -93.865839371228716, 29.727708512403048 ], [ -93.86585644342091, 29.727676386810852 ], [ -93.865865869412573, 29.72766071365902 ], [ -93.865886467124014, 29.727630203280199 ], [ -93.865897607831755, 29.727615411989028 ], [ -93.865921532692042, 29.72758681065293 ], [ -93.865934280823424, 29.727573043669477 ], [ -93.865961302421098, 29.727546626819983 ], [ -93.865975535203859, 29.727534016726558 ], [ -93.866005393305244, 29.727510038769783 ], [ -93.866020973669904, 29.72749870700704 ], [ -93.866053380725603, 29.727477398861065 ], [ -93.866070158625064, 29.727467454558877 ], [ -93.866104802538942, 29.727449021430207 ], [ -93.866122616394208, 29.727440560356179 ], [ -93.866135442111215, 29.727435162749273 ], [ -93.866188159149388, 29.727408639777078 ], [ -93.866190158303979, 29.727407454869702 ], [ -93.866224802174841, 29.727389021710298 ], [ -93.866242616008975, 29.727380560620531 ], [ -93.866279163103329, 29.727365179995338 ], [ -93.866297841338948, 29.727358283616613 ], [ -93.866335939692064, 29.727346103647289 ], [ -93.866355302449662, 29.727340838394511 ], [ -93.866394585158346, 29.727331976378956 ], [ -93.866414445966399, 29.727328392958569 ], [ -93.866454534722124, 29.727322934241428 ], [ -93.866474702313099, 29.727321067163157 ], [ -93.866515211045098, 29.727319064313917 ], [ -93.866535491197212, 29.727318931558376 ], [ -93.866551218730066, 29.727319502762533 ], [ -93.866591803491701, 29.727319237077204 ], [ -93.866632162987315, 29.727315500624151 ], [ -93.866671908528815, 29.727308329387956 ], [ -93.866710657341144, 29.727297792432317 ], [ -93.866715937873096, 29.72729610423772 ], [ -93.866735300599814, 29.727290838929914 ], [ -93.866774583252777, 29.727281976802573 ], [ -93.866794444036017, 29.727278393325626 ], [ -93.866834532748314, 29.727272934494149 ], [ -93.866854700320744, 29.727271067358316 ], [ -93.866895209022047, 29.727269064393319 ], [ -93.866915489162039, 29.727268931579772 ], [ -93.866956027737629, 29.727270403770451 ], [ -93.866976225139382, 29.727272006558174 ], [ -93.867016403186909, 29.72727693972665 ], [ -93.86703632334158, 29.727280262680118 ], [ -93.867075753930493, 29.727288609317878 ], [ -93.86709520499906, 29.72729362043567 ], [ -93.867133508396876, 29.727305300161159 ], [ -93.867152303057495, 29.727311951184145 ], [ -93.867189110386619, 29.727326851516803 ], [ -93.867207067638731, 29.727335078392866 ], [ -93.867242024428592, 29.727353055836343 ], [ -93.867258971335943, 29.727362779337252 ], [ -93.867291740936622, 29.727383660761181 ], [ -93.867307514292634, 29.727394787245597 ], [ -93.867337781117058, 29.727418371552986 ], [ -93.86735222901622, 29.727430793867967 ], [ -93.867379701579239, 29.727456853931738 ], [ -93.867392684880656, 29.727470452445072 ], [ -93.867417098605983, 29.727498737295189 ], [ -93.867428492272822, 29.727513381047011 ], [ -93.867449612041455, 29.72754361828763 ], [ -93.867459306345324, 29.727559166251854 ], [ -93.867476928759586, 29.727591064684244 ], [ -93.867484830337432, 29.727607367126662 ], [ -93.867498785680027, 29.727640619553657 ], [ -93.867504818433218, 29.727657519473876 ], [ -93.867514972301876, 29.727691805658253 ], [ -93.867519078129178, 29.727709140301585 ], [ -93.867525332731191, 29.727744130050063 ], [ -93.867527472088369, 29.727761732475088 ], [ -93.867529391441963, 29.727791300467789 ], [ -93.867534207994794, 29.727829442513741 ], [ -93.867543636398764, 29.727866922769945 ], [ -93.867557570108829, 29.72790331767321 ], [ -93.867575851665109, 29.727938215925423 ], [ -93.867598274472215, 29.727971223141761 ], [ -93.867624585133782, 29.728001966307566 ], [ -93.867632686586063, 29.728010451561321 ], [ -93.867657100512361, 29.728038736360926 ], [ -93.867668494276586, 29.72805338008898 ], [ -93.867674590007809, 29.728062107278543 ], [ -93.867701507181835, 29.728096100551735 ], [ -93.867732699175534, 29.728127186101034 ], [ -93.867760008821833, 29.728148818832825 ], [ -93.867759941644621, 29.728148884508293 ], [ -93.867797782437137, 29.728178370081721 ], [ -93.86781223050302, 29.728190792341735 ], [ -93.867839703394679, 29.728216852300484 ], [ -93.867852686857503, 29.728230450763917 ], [ -93.867877100899321, 29.728258735519653 ], [ -93.867888494720702, 29.728273379227133 ], [ -93.867909614790577, 29.72830361638491 ], [ -93.867919309240648, 29.728319164310765 ], [ -93.867936931938019, 29.728351062672662 ], [ -93.867944833652345, 29.728367365083056 ], [ -93.867958789257187, 29.728400617452603 ], [ -93.867964822135775, 29.728417517347435 ], [ -93.867974976243332, 29.728451803487935 ], [ -93.867979082183737, 29.728469138112803 ], [ -93.867985336998956, 29.7285041278314 ], [ -93.867987476455895, 29.728521730245031 ], [ -93.867989771735552, 29.728557086572518 ], [ -93.867989952465351, 29.728578082298458 ], [ -93.867992052089292, 29.728611797604078 ], [ -93.867997751949389, 29.728645194178696 ], [ -93.868007002176469, 29.728677979808399 ], [ -93.868019721836049, 29.728709867624644 ], [ -93.868035799636402, 29.728740578614346 ], [ -93.868055094902275, 29.728769844061205 ], [ -93.868077438805685, 29.728797407897012 ], [ -93.86810263584303, 29.728823028942166 ], [ -93.868130465545704, 29.728846483016074 ], [ -93.868160684409119, 29.728867564898678 ], [ -93.868177933972618, 29.728878485265714 ], [ -93.868211367197176, 29.728897570808687 ], [ -93.868246754246556, 29.728913751922793 ], [ -93.868279109328341, 29.728926849349797 ], [ -93.868297066953929, 29.728935076068471 ], [ -93.868332024492787, 29.728953053204641 ], [ -93.868348971774566, 29.728962776556102 ], [ -93.868381742122637, 29.728983657690105 ], [ -93.868397515850461, 29.728994784034484 ], [ -93.868427783413466, 29.729018368072119 ], [ -93.868442231678273, 29.729030790257799 ], [ -93.868469704963928, 29.729056850074588 ], [ -93.86848268862127, 29.729070448470608 ], [ -93.868507103046369, 29.729098733098901 ], [ -93.868518497055987, 29.729113376746543 ], [ -93.868539617494761, 29.729143613792619 ], [ -93.868549312124983, 29.729159161666789 ], [ -93.868566935173305, 29.729191059933797 ], [ -93.86857483705792, 29.729207362301153 ], [ -93.868588792992412, 29.729240614593529 ], [ -93.868594826029835, 29.729257514454385 ], [ -93.868604980442512, 29.729291800536203 ], [ -93.868609086528764, 29.729309135136475 ], [ -93.868615341621663, 29.729344124815427 ], [ -93.868617481210038, 29.729361727214084 ], [ -93.868619776737276, 29.729397083521363 ], [ -93.868619929219321, 29.729414784197971 ], [ -93.868617821148248, 29.729459020240732 ], [ -93.868617994085184, 29.729459026518651 ], [ -93.868616937808099, 29.729479825353636 ], [ -93.868618793374026, 29.729513243302826 ], [ -93.868624186037081, 29.729546367757919 ], [ -93.868633069472494, 29.729578914147705 ], [ -93.86864536736617, 29.729610602866835 ], [ -93.868660974070195, 29.729641161677989 ], [ -93.868679755510371, 29.729670328050602 ], [ -93.868701550337974, 29.72969785141634 ], [ -93.868726171315743, 29.729723495321764 ], [ -93.868729707087809, 29.729726849142523 ], [ -93.86874269086826, 29.729740447509265 ], [ -93.868767105532271, 29.729768732082 ], [ -93.868778499657338, 29.729783375703494 ], [ -93.868799620318697, 29.729813612700642 ], [ -93.868809315055643, 29.729829160552089 ], [ -93.868826938308061, 29.729861058777267 ], [ -93.868834840289693, 29.729877361125546 ], [ -93.868841252585227, 29.729892639252746 ], [ -93.868857066090683, 29.729925263607313 ], [ -93.868876467299387, 29.72995637805036 ], [ -93.86889926936928, 29.729985682931193 ], [ -93.868925252705395, 29.730012896026132 ], [ -93.868954167074662, 29.730037755256387 ], [ -93.868967785533684, 29.730048366341112 ], [ -93.86898223401441, 29.730060788461603 ], [ -93.869009707724402, 29.730086848153789 ], [ -93.869022691589507, 29.730100446490596 ], [ -93.869047106420552, 29.730128731006804 ], [ -93.869058500627716, 29.730143374601763 ], [ -93.869079621450155, 29.730173611549375 ], [ -93.869089316265843, 29.730189159377911 ], [ -93.869106939671809, 29.730221057561007 ], [ -93.86911484172802, 29.730237359890204 ], [ -93.869128797990697, 29.730270612114047 ], [ -93.869134831184212, 29.73028751194461 ], [ -93.869144985892461, 29.730321797973904 ], [ -93.869149092117766, 29.730339132552029 ], [ -93.86915534747078, 29.730374122195002 ], [ -93.869157487179848, 29.73039172457986 ], [ -93.869157917318731, 29.730398349048539 ], [ -93.86916248792275, 29.730435166043666 ], [ -93.869171356483093, 29.730471380569874 ], [ -93.869184429661118, 29.730506611462424 ], [ -93.869201569863236, 29.730540487909213 ], [ -93.869222596689184, 29.730572653353498 ], [ -93.869247288830564, 29.730602769246968 ], [ -93.869275386399977, 29.730630518612969 ], [ -93.869306593666408, 29.730655609382854 ], [ -93.869340582167851, 29.730677777470163 ], [ -93.869376994168292, 29.730696789550212 ], [ -93.869415446423162, 29.730712445516044 ], [ -93.869442299382158, 29.730721947308673 ], [ -93.869479108291074, 29.730736846964877 ], [ -93.869497066336535, 29.730745073510001 ], [ -93.869532024717088, 29.730763050307335 ], [ -93.869548972419395, 29.730772773494017 ], [ -93.869581743606389, 29.730793654308311 ], [ -93.86959751775133, 29.730804780498264 ], [ -93.869627786142402, 29.73082836423842 ], [ -93.86964223481688, 29.730840786281501 ], [ -93.869669708911744, 29.73086684582589 ], [ -93.869682692967388, 29.730880444092524 ], [ -93.869707108175064, 29.730908728476113 ], [ -93.869718502567764, 29.730923372008839 ], [ -93.869739623754953, 29.730953608840291 ], [ -93.869749318749356, 29.730969156615085 ], [ -93.869766942504697, 29.731001054699597 ], [ -93.869774844731083, 29.731017356984079 ], [ -93.869788801324404, 29.731050609127873 ], [ -93.869794834677904, 29.731067508923186 ], [ -93.869804989694885, 29.731101794891718 ], [ -93.869809096068451, 29.731119129444401 ], [ -93.869815351705299, 29.731154119046469 ], [ -93.869817491549469, 29.731171721415951 ], [ -93.869819787555073, 29.7312070776835 ], [ -93.869819940258935, 29.731224778349617 ], [ -93.869818254515266, 29.731260160782913 ], [ -93.869816418605083, 29.73127778927871 ], [ -93.869810106697827, 29.73131695661651 ], [ -93.869806206830987, 29.731358137830803 ], [ -93.869807725070004, 29.731399438214961 ], [ -93.869814641525792, 29.731440316550152 ], [ -93.869817695506157, 29.731453208500096 ], [ -93.869828042703247, 29.731488032963799 ], [ -93.869842310364888, 29.731521785519483 ], [ -93.869855065773905, 29.731547876506621 ], [ -93.86986880425232, 29.731580608725434 ], [ -93.869874837653214, 29.731597508514863 ], [ -93.869884992755402, 29.731631794472904 ], [ -93.86988909916667, 29.731649129021029 ], [ -93.869893531884898, 29.731673922245271 ], [ -93.869901749668017, 29.7317086122459 ], [ -93.86991382377559, 29.73174243220134 ], [ -93.869929637930795, 29.731775056405851 ], [ -93.869949039837493, 29.731806170669149 ], [ -93.869971842646891, 29.731835475342333 ], [ -93.869997826756943, 29.731862688203655 ], [ -93.87002674192712, 29.731887547176612 ], [ -93.870027788942679, 29.731888362947949 ], [ -93.870042237820655, 29.731900784941317 ], [ -93.870069712312883, 29.7319268443906 ], [ -93.870082696561767, 29.731940442611982 ], [ -93.870107112144311, 29.731968726909834 ], [ -93.8701185067181, 29.731983370402194 ], [ -93.870139628254094, 29.732013607158084 ], [ -93.870149323415674, 29.732029154897806 ], [ -93.870166947490404, 29.73206105291769 ], [ -93.870174849868476, 29.73207735517272 ], [ -93.870188806748658, 29.732110607263404 ], [ -93.870194840236877, 29.73212750703517 ], [ -93.870207536619347, 29.732170372194883 ], [ -93.870207647538649, 29.732170347169635 ], [ -93.870214681098645, 29.732194093654524 ], [ -93.87022864221575, 29.732227355762252 ], [ -93.870246271663675, 29.732259263383728 ], [ -93.870267399663689, 29.732289509229648 ], [ -93.870291822743468, 29.732317802014347 ], [ -93.870319305696427, 29.732343869261094 ], [ -93.870349583846973, 29.732367459926252 ], [ -93.870382365599383, 29.73238834681705 ], [ -93.870417335246131, 29.732406328779629 ], [ -93.87045415600825, 29.732421232636305 ], [ -93.870492473278929, 29.732432914853508 ], [ -93.870495196201645, 29.732433616235951 ], [ -93.870533501935824, 29.732445294920993 ], [ -93.87055229777512, 29.732451945432143 ], [ -93.870589107478338, 29.732466844759664 ], [ -93.8706070659223, 29.73247507114397 ], [ -93.870642025101091, 29.732493047627297 ], [ -93.870658973201955, 29.73250277066127 ], [ -93.87069174518345, 29.732523651179264 ], [ -93.87070751972314, 29.732534777226068 ], [ -93.870737788897301, 29.732558360690483 ], [ -93.870752237958953, 29.7325707826014 ], [ -93.870779712817992, 29.732596841893251 ], [ -93.870792697249485, 29.732610440039927 ], [ -93.870817113195031, 29.73263872419664 ], [ -93.87082850794863, 29.732653367622774 ], [ -93.870849629840279, 29.732683604255161 ], [ -93.870859325177179, 29.732699151937794 ], [ -93.87087694959682, 29.732731049853005 ], [ -93.870884852143973, 29.732747352060628 ], [ -93.870898809354998, 29.732780604066487 ], [ -93.870904843004467, 29.73279750380096 ], [ -93.870914998586599, 29.732831789664274 ], [ -93.870919105228509, 29.732849124172748 ], [ -93.870925361372542, 29.732884113703328 ], [ -93.870927501454815, 29.732901716045639 ], [ -93.870929797904736, 29.732937072276094 ], [ -93.870929950814173, 29.732954772932366 ], [ -93.870928265447688, 29.732990155363346 ], [ -93.870926429708547, 29.733007783866679 ], [ -93.870919614512289, 29.733050076599564 ], [ -93.870915940814896, 29.733085354865587 ], [ -93.87091624681527, 29.733120777524331 ], [ -93.870920529570668, 29.733156003436118 ], [ -93.870928747839869, 29.733190693355692 ], [ -93.87094082248025, 29.733224513199374 ], [ -93.870956637209801, 29.733257137262498 ], [ -93.87097603972687, 29.733288251356147 ], [ -93.870998843176835, 29.733317555833043 ], [ -93.871017116020951, 29.733338723404028 ], [ -93.871028510884955, 29.733353366809183 ], [ -93.871028945656846, 29.733353989191599 ], [ -93.871047721309722, 29.733378547460759 ], [ -93.871068733702884, 29.733401684458116 ], [ -93.871091842273998, 29.733423245407216 ], [ -93.871112240302324, 29.733440781397839 ], [ -93.871139715495502, 29.733466840604862 ], [ -93.871152700089809, 29.733480438711194 ], [ -93.871177116351816, 29.733508722791484 ], [ -93.87118851125858, 29.733523366181668 ], [ -93.871209633445915, 29.733553602746795 ], [ -93.87121932892488, 29.733569150398207 ], [ -93.871236953616588, 29.733601048255938 ], [ -93.871244856293345, 29.733617350437381 ], [ -93.871258813750202, 29.733650602396096 ], [ -93.871264847515548, 29.733667502109682 ], [ -93.871275003314921, 29.73370178793666 ], [ -93.871279110057841, 29.733719122429722 ], [ -93.871286931886075, 29.733762867220953 ], [ -93.871287290231891, 29.733762818415741 ], [ -93.871291302890029, 29.733784935766625 ], [ -93.871302197890287, 29.733820726655857 ], [ -93.871317237255397, 29.733855354963652 ], [ -93.871336262697085, 29.733888456220043 ], [ -93.871359073972272, 29.733919682027206 ], [ -93.871385430990486, 29.733948703726529 ], [ -93.87141505634078, 29.733975215857917 ], [ -93.871447638211563, 29.7339989393748 ], [ -93.871482833672388, 29.734019624581293 ], [ -93.871520272283377, 29.73403705376041 ], [ -93.871559559994338, 29.734051043465538 ], [ -93.871573500037243, 29.734055293319269 ], [ -93.871592296244231, 29.73406194367362 ], [ -93.871629106687678, 29.734076842693263 ], [ -93.871647065503069, 29.73408506892693 ], [ -93.871682025425997, 29.734103045116129 ], [ -93.871698973898432, 29.734112768007041 ], [ -93.871731746620782, 29.734133648247514 ], [ -93.871747521528633, 29.734144774160242 ], [ -93.871777791433246, 29.734168357366379 ], [ -93.871792240856067, 29.734180779153466 ], [ -93.871819716428092, 29.734206838208806 ], [ -93.871832701210323, 29.734220436243113 ], [ -93.871857117844556, 29.734248720187335 ], [ -93.871874217352783, 29.734270694006277 ], [ -93.871874598565171, 29.734270468050997 ], [ -93.871886428026642, 29.734285669559615 ], [ -93.871912413292605, 29.734312882011643 ], [ -93.871941329642539, 29.734337740533235 ], [ -93.871967791465323, 29.734358356761931 ], [ -93.871982240938905, 29.734370778526912 ], [ -93.872009716612098, 29.734396837540011 ], [ -93.872022701444592, 29.734410435554278 ], [ -93.872047118178656, 29.734438719460616 ], [ -93.872058513318535, 29.734453362769159 ], [ -93.872079635965449, 29.734483599181978 ], [ -93.872089331670153, 29.734499146762946 ], [ -93.872106956804515, 29.734531044491501 ], [ -93.872114859697504, 29.734547346614384 ], [ -93.872128817575842, 29.734580598468291 ], [ -93.872134851545809, 29.734597498135781 ], [ -93.872145007741437, 29.734631783883316 ], [ -93.872149114675409, 29.734649118343178 ], [ -93.872155371373196, 29.734684107795267 ], [ -93.87215751171631, 29.734701710107821 ], [ -93.87215932175036, 29.734729571503113 ], [ -93.872163605022394, 29.734764797355989 ], [ -93.872171823863226, 29.734799487178698 ], [ -93.872183899124721, 29.734833306888468 ], [ -93.872199714518899, 29.734865930781918 ], [ -93.8722191177377, 29.734897044671765 ], [ -93.872241921919709, 29.734926348912715 ], [ -93.872267907449654, 29.734953561287178 ], [ -93.872296824073317, 29.734978419723348 ], [ -93.872328393307654, 29.73500068481907 ], [ -93.8723623111227, 29.735020142147601 ], [ -93.872398250869622, 29.73503660432258 ], [ -93.872435866426557, 29.735049912802868 ], [ -93.872474795532028, 29.735059939419305 ], [ -93.872515737336286, 29.735068603421961 ], [ -93.872535190165451, 29.735073613698564 ], [ -93.872573497131597, 29.735085291763387 ], [ -93.872592293594678, 29.735091941969454 ], [ -93.872629104558712, 29.735106840698023 ], [ -93.872647063637828, 29.735115066789337 ], [ -93.872682024094189, 29.735133042700728 ], [ -93.872698972835494, 29.735142765456612 ], [ -93.872731746098935, 29.735163645435218 ], [ -93.872747521278214, 29.73517477122153 ], [ -93.872777791726406, 29.735198354184273 ], [ -93.872792241420584, 29.735210775854767 ], [ -93.87281971753346, 29.73523683468753 ], [ -93.872832702584347, 29.735250432616201 ], [ -93.872857119751444, 29.735278716360789 ], [ -93.872868515105353, 29.735293359593431 ], [ -93.872889638174527, 29.735323595864667 ], [ -93.872899334086853, 29.73533914338017 ], [ -93.872916959628611, 29.735371040988646 ], [ -93.872924862720794, 29.735387343057113 ], [ -93.87293882098777, 29.735420594813625 ], [ -93.872944855146585, 29.735437494438287 ], [ -93.872955011708314, 29.735471780112043 ], [ -93.872959118818997, 29.735489114541089 ], [ -93.872960552818455, 29.735497133479203 ], [ -93.872969237971489, 29.735533381872607 ], [ -93.872982132899864, 29.735568662894529 ], [ -93.872999101886194, 29.735602605205209 ], [ -93.873019966332308, 29.735634851554767 ], [ -93.873044506638905, 29.735665062543298 ], [ -93.87307246451671, 29.735692920193287 ], [ -93.873103545705064, 29.735718131296355 ], [ -93.873137423068926, 29.73574043049954 ], [ -93.87317374004212, 29.735759583098151 ], [ -93.87321211438028, 29.735775387506202 ], [ -93.873252142184143, 29.735787677378191 ], [ -93.873275187571181, 29.735793612768695 ], [ -93.873313494893267, 29.735805290610784 ], [ -93.873332291537906, 29.735811940707322 ], [ -93.873369102871607, 29.735826839220884 ], [ -93.873387062138292, 29.735835065207048 ], [ -93.873422022974538, 29.735853040913259 ], [ -93.873438971907618, 29.735862763569418 ], [ -93.873471745557552, 29.735883643354644 ], [ -93.873487520930951, 29.735894769047594 ], [ -93.873517791768478, 29.735918351830616 ], [ -93.873532241657287, 29.735930773415038 ], [ -93.873559718158589, 29.735956832083474 ], [ -93.873572703402715, 29.735970429934159 ], [ -93.873597120953619, 29.735998713531416 ], [ -93.873608516497512, 29.736013356694912 ], [ -93.873614657696578, 29.736022147222197 ], [ -93.873641579038321, 29.736056139163075 ], [ -93.87367277535472, 29.736087223188274 ], [ -93.873700017124762, 29.736108798114874 ], [ -93.87369994627096, 29.736108867386616 ], [ -93.873737791805581, 29.736138351130723 ], [ -93.873752241753124, 29.736150772689513 ], [ -93.87377971837158, 29.736176831309045 ], [ -93.873792703673942, 29.73619042913651 ], [ -93.873817121340437, 29.736218712689897 ], [ -93.873828516941515, 29.736233355832823 ], [ -93.873849640499088, 29.73626359193673 ], [ -93.87385933665189, 29.736279139374854 ], [ -93.873881373156223, 29.7363190184183 ], [ -93.873881621829597, 29.736318913756829 ], [ -93.873894919237728, 29.736342678939206 ], [ -93.873918719040091, 29.736375643568973 ], [ -93.873946451360538, 29.736406177431398 ], [ -93.873977793091086, 29.7364339247742 ], [ -93.874012379069299, 29.736458562310844 ], [ -93.874051745264197, 29.736483641723421 ], [ -93.87406752079545, 29.736494767343039 ], [ -93.874097791949083, 29.736518349984859 ], [ -93.874112241995661, 29.736530771501616 ], [ -93.874139718811392, 29.736556830040922 ], [ -93.874152704211724, 29.736570427830316 ], [ -93.874177122072368, 29.736598711311753 ], [ -93.874188517769355, 29.7366133544209 ], [ -93.87420964151606, 29.736643590461806 ], [ -93.874219337761815, 29.736659137870802 ], [ -93.874236963958609, 29.736691035283993 ], [ -93.87424486737136, 29.73670733726399 ], [ -93.874258826264494, 29.736740588862133 ], [ -93.874264860727962, 29.736757488417162 ], [ -93.87427501788099, 29.736791773970999 ], [ -93.874279125277411, 29.736809108349931 ], [ -93.874285382865978, 29.736844097672268 ], [ -93.874286443162589, 29.736852815853879 ], [ -93.874292296371308, 29.736886079668039 ], [ -93.874301673821037, 29.736918723177848 ], [ -93.874314494003755, 29.736950462636973 ], [ -93.874330645485969, 29.736981022157146 ], [ -93.874349987877252, 29.737010136106136 ], [ -93.874372353050433, 29.73703755141689 ], [ -93.87439754660295, 29.737063029787222 ], [ -93.874425349546584, 29.737086349751259 ], [ -93.874455520211029, 29.737107308604507 ], [ -93.874487796344468, 29.737125724165903 ], [ -93.87450202206746, 29.737133038304826 ], [ -93.874518971319517, 29.737142760814301 ], [ -93.874551745609324, 29.737163640315043 ], [ -93.874567521302595, 29.73717476587062 ], [ -93.87459779277863, 29.737198348389139 ], [ -93.874612242985108, 29.737210769846797 ], [ -93.874639720117415, 29.737236828273243 ], [ -93.874652705673924, 29.737250426009034 ], [ -93.874677123842261, 29.737278709389123 ], [ -93.874688519690253, 29.737293352450688 ], [ -93.874709643732785, 29.737323588402745 ], [ -93.874719340122923, 29.737339135770629 ], [ -93.874736966600821, 29.737371033108346 ], [ -93.874744870149911, 29.737387335054077 ], [ -93.874758829306757, 29.737420586590837 ], [ -93.874764863897212, 29.737437486118814 ], [ -93.874772270809402, 29.737462487580462 ], [ -93.874784347279984, 29.737496307015267 ], [ -93.874800163948393, 29.737528930559339 ], [ -93.874819568494331, 29.73756004402879 ], [ -93.874842374043581, 29.737589347782329 ], [ -93.874868360967696, 29.73761655960709 ], [ -93.874897278999057, 29.73764141743656 ], [ -93.874928849641051, 29.737663681874441 ], [ -93.874962768850153, 29.73768313850028 ], [ -93.874982021635887, 29.737693037145469 ], [ -93.874998971028305, 29.737702759589812 ], [ -93.875031745599557, 29.737723638964198 ], [ -93.875047521433586, 29.737734764458764 ], [ -93.875077793190698, 29.737758346859803 ], [ -93.875092243537054, 29.737770768261164 ], [ -93.875119720947339, 29.737796826580123 ], [ -93.875132706641523, 29.73781042426489 ], [ -93.87515712508204, 29.737838707548537 ], [ -93.875168521064168, 29.737853350564844 ], [ -93.875189645370526, 29.737883586432424 ], [ -93.875199341889939, 29.737899133761239 ], [ -93.875216968620705, 29.737931031027259 ], [ -93.875224872292989, 29.737947332940479 ], [ -93.875238831689359, 29.737980584419013 ], [ -93.875244866395732, 29.737997483921365 ], [ -93.875255024016354, 29.738031769384314 ], [ -93.875259131636767, 29.738049103725157 ], [ -93.875265389652782, 29.738084092986178 ], [ -93.875267530625734, 29.738101695226955 ], [ -93.875269828763152, 29.738137051321271 ], [ -93.875269854136562, 29.738139973343149 ], [ -93.875272152968677, 29.738175340093818 ], [ -93.875278412884455, 29.738210339899336 ], [ -93.875288573601395, 29.738244635691853 ], [ -93.875302537269874, 29.738277897183149 ], [ -93.875320169415247, 29.738309804045688 ], [ -93.875341300232876, 29.738340048997465 ], [ -93.875365726223222, 29.738368340761433 ], [ -93.875393212151721, 29.738394406870675 ], [ -93.875412245048324, 29.738410767195358 ], [ -93.875439722718454, 29.738436825440115 ], [ -93.87545270853974, 29.738450423089628 ], [ -93.875477127228365, 29.738478706306537 ], [ -93.875488523331086, 29.738493349291456 ], [ -93.87550964787134, 29.738523585100367 ], [ -93.875519344503701, 29.738539132401989 ], [ -93.875536971451965, 29.738571029617994 ], [ -93.875544875228456, 29.738587331508477 ], [ -93.875558834823778, 29.738620582946115 ], [ -93.875564869624625, 29.738637482430381 ], [ -93.875575027423764, 29.738671767861959 ], [ -93.875579135127978, 29.73868910218955 ], [ -93.875585393300383, 29.73872409142902 ], [ -93.875587534345655, 29.738741693661538 ], [ -93.875589832615773, 29.738777049744314 ], [ -93.875589986379637, 29.738794750362938 ], [ -93.875588302607653, 29.73883013279109 ], [ -93.875586467606141, 29.738847761329257 ], [ -93.875580818001424, 29.738882829350594 ], [ -93.875577011903516, 29.738900216035624 ], [ -93.8755674508688, 29.738934631925286 ], [ -93.875561710326366, 29.738951609313517 ], [ -93.875548329933963, 29.738985041626549 ], [ -93.875540710228876, 29.739001446215756 ], [ -93.875523639334332, 29.739033572979103 ], [ -93.875514213846202, 29.739049246783264 ], [ -93.875493616847407, 29.73907975859667 ], [ -93.875476899377858, 29.739101955622019 ], [ -93.875477037625231, 29.739102034921029 ] ] ] ] } },
{ "type": "Feature", "properties": { "zone_code": "SPL_APPROACH", "zone_type": "approach", "method": "ais_approach_concave_hull" }, "geometry": { "type": "MultiPolygon", "coordinates": [ [ [ [ -93.87278320357396, 29.744605431190042 ], [ -93.872693204166708, 29.744705432132555 ], [ -93.872578698360471, 29.744820730021758 ], [ -93.872451976894652, 29.744925847099122 ], [ -93.872314222577316, 29.745019802179108 ], [ -93.872166721210732, 29.745101718261783 ], [ -93.872010849589216, 29.745170830719921 ], [ -93.871848062647089, 29.745226494437055 ], [ -93.871679879876851, 29.745268189829943 ], [ -93.871507871144374, 29.745295527699245 ], [ -93.871333642033477, 29.74530825286288 ], [ -93.871158818856983, 29.745306246538409 ], [ -93.870985033473985, 29.745289527451991 ], [ -93.870813908055524, 29.745258251663614 ], [ -93.870593904904723, 29.745208250979672 ], [ -93.870475903636574, 29.745177656911643 ], [ -93.868865882013267, 29.744707650461052 ], [ -93.868699505263663, 29.744650969138842 ], [ -93.86854034169744, 29.744580251691623 ], [ -93.868460340937801, 29.744540251170626 ], [ -93.868281391040441, 29.744438066880143 ], [ -93.868117504444413, 29.744318173903967 ], [ -93.866127501001344, 29.742678155548347 ], [ -93.865982148474657, 29.742543454689386 ], [ -93.865855847175581, 29.742394842365201 ], [ -93.865825847500972, 29.742354842020163 ], [ -93.865737735581718, 29.742224048250691 ], [ -93.865664413022003, 29.742086479186653 ], [ -93.865606556548002, 29.741943404627445 ], [ -93.86556470012232, 29.74179614518447 ], [ -93.865539230017617, 29.74164606009089 ], [ -93.865530381253635, 29.741494534655281 ], [ -93.865538235430634, 29.741342967474637 ], [ -93.865568240414646, 29.741062967776994 ], [ -93.865585134094218, 29.740949690485444 ], [ -93.865675142250254, 29.740479691518086 ], [ -93.86571415373011, 29.740324479923586 ], [ -93.865814158931215, 29.740004481119673 ], [ -93.865857110365056, 29.739885708760841 ], [ -93.865910653177266, 29.739770259609877 ], [ -93.866060657055272, 29.739480261375171 ], [ -93.866118849492352, 29.739377819479294 ], [ -93.866261146075217, 29.739148569929213 ], [ -93.866969247672017, 29.737722844570566 ], [ -93.86715469930148, 29.73524000039761 ], [ -93.866922805846144, 29.734495087831426 ], [ -93.8664073543911, 29.733244589306917 ], [ -93.866401635378281, 29.73323050582492 ], [ -93.865949646559685, 29.732100486673691 ], [ -93.865367608667924, 29.730761748509082 ], [ -93.864673653381558, 29.729295594977877 ], [ -93.863959527062363, 29.727857774455302 ], [ -93.863001629112034, 29.726295338346066 ], [ -93.861774403306313, 29.724652561849169 ], [ -93.861770595094683, 29.724647442439167 ], [ -93.86119314717142, 29.72386787261286 ], [ -93.859917279210975, 29.722307360398343 ], [ -93.859822590432486, 29.722178814673008 ], [ -93.859742579956048, 29.722042882138989 ], [ -93.859677996993909, 29.721900835759616 ], [ -93.859629446276372, 29.721754005747172 ], [ -93.859597382391073, 29.721603767105215 ], [ -93.859582105528276, 29.721451526751789 ], [ -93.859583758672414, 29.721298710343767 ], [ -93.859602326265971, 29.721146748926202 ], [ -93.859637634358023, 29.720997065531233 ], [ -93.859689352235961, 29.72085106185235 ], [ -93.859756995525203, 29.720710105118769 ], [ -93.859839930727347, 29.720575515292662 ], [ -93.860039933692391, 29.72028551754228 ], [ -93.860142624315174, 29.720152425046898 ], [ -93.860260257316142, 29.720029115369492 ], [ -93.860391618226942, 29.719916861529562 ], [ -93.860535350869327, 29.719816822404457 ], [ -93.860689971356493, 29.719730030766598 ], [ -93.86085388341202, 29.719657382622771 ], [ -93.861025394848525, 29.719599627965003 ], [ -93.861202735035832, 29.719557363028962 ], [ -93.861384073178357, 29.719531024139545 ], [ -93.861584070124422, 29.719511024507568 ], [ -93.861790001186989, 29.719500761547597 ], [ -93.861899999464654, 29.719500761582175 ], [ -93.862087574706578, 29.719509271858414 ], [ -93.862273128373133, 29.719534711005217 ], [ -93.862454660678452, 29.719576804852966 ], [ -93.862630215170881, 29.719635099737435 ], [ -93.862797899815888, 29.71970896738847 ], [ -93.862955907385114, 29.719797611700422 ], [ -93.863102534931954, 29.719900077310992 ], [ -93.86323620214398, 29.720015259896613 ], [ -93.864376203942555, 29.721105248514633 ], [ -93.864474833959477, 29.721207986919644 ], [ -93.864563127706887, 29.721317655664713 ], [ -93.866223146800095, 29.723577636447001 ], [ -93.866250135865627, 29.723615547435987 ], [ -93.867250149458414, 29.725065535614899 ], [ -93.867285421591788, 29.725119015842925 ], [ -93.868363320173131, 29.726829767601501 ], [ -93.869560610121411, 29.72861081963622 ], [ -93.869566110875681, 29.728619059109953 ], [ -93.870766128823007, 29.730429044745851 ], [ -93.870778751383327, 29.730448396372331 ], [ -93.871876714778409, 29.732159596143305 ], [ -93.873018939812425, 29.733831110011874 ], [ -93.87371608264894, 29.734554062326506 ], [ -93.874437019512328, 29.735255505558694 ], [ -93.874453331212038, 29.735271594875488 ], [ -93.874673331800196, 29.735491592628762 ], [ -93.874704586185388, 29.735523701162016 ], [ -93.87506458764625, 29.735903697391546 ], [ -93.87515957695382, 29.736013350729021 ], [ -93.876139585971629, 29.737253339668399 ], [ -93.876231366900456, 29.737382320782011 ], [ -93.876308531427725, 29.737518397658757 ], [ -93.876628539739542, 29.738158393534757 ], [ -93.876689415105062, 29.738297746128019 ], [ -93.876734956678476, 29.738441488791672 ], [ -93.876764758252264, 29.738588339622286 ], [ -93.876778553984764, 29.738736988992169 ], [ -93.876776220773209, 29.738886111228492 ], [ -93.876757779354207, 29.739034376435534 ], [ -93.876617792952487, 29.7398143780234 ], [ -93.876584454032908, 29.739956866211216 ], [ -93.876536236777525, 29.740096073771138 ], [ -93.876473550023775, 29.740230820176539 ], [ -93.87639692532116, 29.740359962728135 ], [ -93.875926932974011, 29.741069968060039 ], [ -93.875784622323224, 29.741253798885332 ], [ -93.873946234981588, 29.743302035133276 ], [ -93.872787837433862, 29.744600260279398 ], [ -93.87278320357396, 29.744605431190042 ] ] ] ] } }
]
}
